adsh	cik	name	sic	countryba	stprba	cityba	zipba	bas1	bas2	baph	countryma	stprma	cityma	zipma	mas1	mas2	countryinc	stprinc	ein	former	changed	afs	wksi	fye	form	period	fy	fp	filed	accepted	prevrpt	detail	instance	nciks	aciks
0000277948-09-000113	277948	CSX CORP	4011	US	FL	JACKSONVILLE	32202	500 WATER STREET	15TH FLOOR	9043593200	US	FL	JACKSONVILLE	32202	500 WATER STREET	15TH FLOOR	US	VA	621051971			1-LAF	1	1231	10-Q	20090630	2009	Q2	20090715	2009-07-15 16:16:00.0	0	0	csx-20090626.xml	1	
0000950123-09-022892	875045	BIOGEN IDEC INC.	2836	US	MA	CAMBRIDGE	02142	14 CAMBRIDGE CENTER		6176792000	US	MA	CAMBRIDGE	02142	14 CAMBRIDGE CENTER		US	DE	330112644	BIOGEN IDEC INC	20031112	1-LAF	0	1231	10-Q	20090630	2009	Q2	20090717	2009-07-16 19:50:00.0	0	0	biib-20090630.xml	1	
0001193125-09-150935	1048286	MARRIOTT INTERNATIONAL INC /MD/	7011	US	MD	BETHESDA	20817	10400 FERNWOOD ROAD		3013803000	US	MD	BETHESDA	20817	10400 FERNWOOD ROAD		US	DE	522055918	NEW MARRIOTT MI INC	19971023	1-LAF	1	1231	10-Q	20090630	2009	Q2	20090717	2009-07-17 16:49:00.0	0	0	mar-20090619.xml	1	
0000950123-09-024369	804328	QUALCOMM INC/DE	3663	US	CA	SAN DIEGO	92121	5775 MOREHOUSE DR		8585871121	US	CA	SAN DIEGO	92121	5775 MOREHOUSE DR		US	DE	953685934			1-LAF	1	0930	10-Q	20090630	2009	Q3	20090722	2009-07-22 16:31:00.0	0	0	qcom-20090628.xml	1	
0001193125-09-152905	12927	BOEING CO	3721	US	WA	SEATTLE	98124	P O BOX 3707 MS 1F 31		2066552121	US	IL	CHICAGO	60606	100 N RIVERSIDE PLZ		US	DE	910425694	BOEING AIRPLANE CO	19730725	1-LAF	1	1231	10-Q	20090630	2009	Q2	20090722	2009-07-22 12:33:00.0	0	0	ba-20090630.xml	1	
0001193125-09-153165	320193	APPLE INC	3571	US	CA	CUPERTINO	95014	1 INFINITE LOOP		4089961010	US	CA	CUPERTINO	95014	ONE INFINITE LOOP		US	CA	942404110	APPLE COMPUTER INC	19970808	1-LAF	1	0930	10-Q	20090630	2009	Q3	20090722	2009-07-22 16:42:00.0	0	0	aapl-20090627.xml	1	
0001193125-09-153175	768251	ALTERA CORP	3674	US	CA	SAN JOSE	95134	101 INNOVATION DR		408.544.8790	US	CA	SAN JOSE	95134	101 INNOVATION DR		US	DE	770016691			1-LAF	0	1231	10-Q	20090630	2009	Q2	20090722	2009-07-22 16:53:00.0	0	0	altr-20090626.xml	1	
0001193125-09-153203	936468	LOCKHEED MARTIN CORP	3760	US	MD	BETHESDA	20817	6801 ROCKLEDGE DR		3018976000	US	MD	BETHESDA	20817	6801 ROCKLEDGE DRIVE		US	MD	521893632			1-LAF	1	1231	10-Q	20090630	2009	Q2	20090722	2009-07-22 17:09:00.0	0	0	lmt-20090628.xml	1	
0000092380-09-000027	92380	SOUTHWEST AIRLINES CO	4512	US	TX	DALLAS	75235	2702 LOVE FIELD DR	P O BOX 36611	2147924000	US	TX	DALLAS	75235-1611	PO BOX 36611		US	TX	741563240	AIR SOUTHWEST CO	19760108	1-LAF	1	1231	10-Q	20090630	2009	Q2	20090723	2009-07-23 13:53:00.0	1	0	luv-20090630.xml	1	
0000314808-09-000067	314808	ENSCO INTERNATIONAL INC	1381	US	TX	DALLAS	75201-3331	500 NORTH AKARD STREET	SUITE 4300	2143973000	US	TX	DALLAS	75201-3331	500 NORTH AKARD STREET	SUITE 4300	US	DE	760232579	ENERGY SERVICE COMPANY INC	19920703	1-LAF	1	1231	10-Q	20090630	2009	Q2	20090723	2009-07-23 12:49:00.0	0	0	esv-20090630.xml	1	
0000950123-09-024448	1164727	NEWMONT MINING CORP /DE/	1040	US	CO	GREENWOOD VILLAGE	80111	6363 SOUTH FIDDLERS GREEN CIRCLE		303-863-7414	US	CO	GREENWOOD VILLAGE	80111	6363 SOUTH FIDDLERS GREEN CIRCLE		US	DE	841611629	DELTA HOLDCO CORP	20020109	1-LAF	1	1231	10-Q	20090630	2009	Q2	20090723	2009-07-22 19:17:00.0	0	0	nem-20090630.xml	1	
0000950123-09-024544	315852	RANGE RESOURCES CORP	1311	US	TX	FT WORTH	76102	100 THROCKMORTON  STE. 1200		817-870-2601	US	TX	FT WORTH	76102	100 THROCKMORTON  STE. 1200		US	DE	341312571	LOMAK PETROLEUM INC	19920703	1-LAF	1	1231	10-Q	20090630	2009	Q2	20090723	2009-07-23 06:49:00.0	0	0	rrc-20090630.xml	1	
0000950123-09-024563	1133421	NORTHROP GRUMMAN CORP /DE/	3812	US	CA	LOS ANGELES	90067	1840 CENTURY PK E	C/O NORTHROP GRUMMAN CORP	310-201-1630	US	CA	LOS ANGELES	90067	1840 CENTURY PARK EAST	C/O NORTHROP GRUMMAN CORP	US	DE	954840775	NNG INC	20010129	1-LAF	1	1231	10-Q	20090630	2009	Q2	20090723	2009-07-23 08:08:00.0	0	0	noc-20090630.xml	1	
0000950123-09-024681	42542	GOODRICH CORP	3760	US	NC	CHARLOTTE	28217	4 COLISEUM CENTRE	2730 WEST TYVOLA ROAD	7044237000	US	NC	CHARLOTTE	28217	4 COLISEUM CENTRE	2730 WEST TYVOLA RD	US	NY	340252680	GOODRICH B F CO	19920703	1-LAF	1	1231	10-Q	20090630	2009	Q2	20090723	2009-07-23 13:08:00.0	0	0	gr-20090630.xml	1	
0001193125-09-153251	313616	DANAHER CORP /DE/	3823	US	DC	WASHINGTON	20006	2099 PENNSYLVANIA AVE N.W., 12TH FLOOR		2028280850	US	DC	WASHINGTON	20006	2099 PENNSYLVANIA AVE. N.W., 12TH FLOOR		US	DE	591995548	DMG INC	19850221	1-LAF	1	1231	10-Q	20090630	2009	Q2	20090723	2009-07-22 17:49:00.0	0	0	dhr-20090703.xml	1	
0001193125-09-153752	1047122	RAYTHEON CO/	3812	US	MA	WALTHAM	02451-1449	870 WINTER STREET		781-522-3031	US	MA	WALTHAM	02451-1449	870 WINTER STREET		US	DE	951778500	HE HOLDINGS INC	19971001	1-LAF	1	1231	10-Q	20090630	2009	Q2	20090723	2009-07-23 11:48:00.0	0	0	rtn-20090628.xml	1	
0001193125-09-153889	14272	BRISTOL MYERS SQUIBB CO	2834	US	NY	NEW YORK	10154	345 PARK AVE		2125464000	US	NY	NEW YORK	10154	345 PARK AVE		US	DE	220790350	BRISTOL MYERS CO	19891012	1-LAF	1	1231	10-Q	20090630	2009	Q2	20090723	2009-07-23 14:02:00.0	0	0	bmy-20090630.xml	1	
0001193125-09-154009	1035267	INTUITIVE SURGICAL INC	3842	US	CA	SUNNYVALE	94086	950 KIFER ROAD		4085232100	US	CA	SUNNYVALE	94086	950 KIFER ROAD		US	DE	770416458			1-LAF	1	1231	10-Q	20090630	2009	Q2	20090723	2009-07-23 16:08:00.0	0	0	isrg-20090630.xml	1	
0001193125-09-154110	4281	ALCOA INC	3350	US	PA	PITTSBURGH	15212-5858	201 ISABELLA ST	ALCOA CORPORATE CTR	4125532576	US	PA	PITTSBURGH	15212-5858	801 ISABELLA ST	ALCOA CORPORATE CTR	US	PA	250317820	ALUMINUM CO OF AMERICA	19920703	1-LAF	1	1231	10-Q	20090630	2009	Q2	20090723	2009-07-23 17:12:00.0	0	0	aa-20090630.xml	1	
0000016868-09-000037	16868	CANADIAN NATIONAL RAILWAY CO	4011	CA	QC	CANADA	H3B 2M9	935 DE LA GAUCHETIERE ST W	MONTREAL QUEBEC	5143996569	CA	QC	CANADA H3B 2M9	00000	935 DE LA GAUCHETIERE ST WEST	MONTREAL QUEBEC	CA	QC	980018609			1-LAF	1	1231	6-K	20090630	2009	Q2	20090724	2009-07-23 19:16:00.0	0	0	cni-20090630.xml	1	
0000934612-09-000042	934612	BURLINGTON NORTHERN SANTA FE CORP	4011	US	TX	FT WORTH	76131-2830	2650 LOU MENK DR		8007952673	US	TX	FORT WORTH	76131-2830	2650 LOU MENK DRIVE		US	DE	411804964	BURLINGTON NORTHERN SANTE FE CORP	19950913	1-LAF	1	1231	10-Q	20090630	2009	Q2	20090724	2009-07-23 18:05:00.0	0	0	bni-20090630.xml	1	
0000950123-09-024912	1054374	BROADCOM CORP	3674	US	CA	IRVINE	92617-3038	5300 CALIFORNIA AVENUE		949 926 5000	US	CA	IRVINE	92617-3038	5300 CALIFORNIA AVENUE		US	CA	330480482			1-LAF	0	1231	10-Q	20090630	2009	Q2	20090724	2009-07-23 19:02:00.0	0	0	brcm-20090630.xml	1	
0000950123-09-025033	29905	DOVER CORP	3530	US	NY	NEW YORK	10017	280 PARK AVE	38-W	2129221640							US	DE	530257888			1-LAF	1	1231	10-Q	20090630	2009	Q2	20090724	2009-07-24 07:18:00.0	0	0	dov-20090630.xml	1	
0000950123-09-025125	2969	AIR PRODUCTS & CHEMICALS INC /DE/	2810	US	PA	ALLENTOWN	18195-1501	7201 HAMILTON BLVD		6104814911	US	PA	ALLENTOWN	18195-1501	7201 HAMILTON BLVD		US	DE	231274455			1-LAF	1	0930	10-Q	20090630	2009	Q3	20090724	2009-07-24 11:16:00.0	0	0	apd-20090630.xml	1	
0000950123-09-025178	1113169	PRICE T ROWE GROUP INC	6200	US	MD	BALTIMORE	21289-0320	100 EAST PRATT STREET	P.O. BOX 89000	4103452000	US	MD	BALTIMORE	21289-0320	100 EAST PRATT STREET	P.O. BOX 89000	US	MD	522264646			1-LAF	1	1231	10-Q	20090630	2009	Q2	20090724	2009-07-24 12:36:00.0	0	1	trow-20090630.xml	1	
0000950123-09-025362	310158	SCHERING PLOUGH CORP	2834	US	NJ	KENILWORTH	07033	2000 GALLOPING HILL ROAD		9082984000	US	NJ	KENILWORTH	07033	2000 GALLOPING HILL ROAD		US	NJ	221918501			1-LAF	1	1231	10-Q	20090630	2009	Q2	20090724	2009-07-24 16:45:00.0	0	0	sgp-20090630.xml	1	
0001104659-09-044741	883984	ICU MEDICAL INC/DE	3841	US	CA	SAN CLEMENTE	92763	951 CALLE AMANECER		949-366-2183	US	CA	SAN CLEMENTE	92763	951 CALLE AMANECER		US	DE	330022692			2-ACC	0	1231	10-Q	20090630	2009	Q2	20090724	2009-07-24 14:24:00.0	0	0	icui-20090630.xml	1	
0001193125-09-154174	1018724	AMAZON COM INC	5961	US	WA	SEATTLE	98144	1200 12TH AVENUE S SUITE 1200		2062661000	US	WA	SEATTLE	98144	1200 12TH AVENUE S SUITE 1200		US	DE	911646860			1-LAF	1	1231	10-Q	20090630	2009	Q2	20090724	2009-07-23 18:14:00.0	0	0	amzn-20090630.xml	1	
0001193125-09-154417	101829	UNITED TECHNOLOGIES CORP /DE/	3724	US	CT	HARTFORD	06101	UNITED TECHNOLOGIES BLDG	ONE FINANCIAL PLZ	8607287000							US	DE	060570975	UNITED TECHNOLOGIES MICROELECTRONICS CENTER	19850825	1-LAF	1	1231	10-Q	20090630	2009	Q2	20090724	2009-07-24 06:26:00.0	0	0	utx-20090630.xml	1	
0001193125-09-154691	815556	FASTENAL CO	5200	US	MN	WINONA	55987	2001 THEURER BLVD		5074545374							US	MN	410948415			1-LAF	1	1231	10-Q	20090630	2009	Q2	20090724	2009-07-24 12:19:00.0	0	0	fast-20090630.xml	1	
0001193125-09-154888	1109357	EXELON CORP	4931	US	IL	CHICAGO	60680-5398	PO BOX 805398		3123947399	US	IL	CHICAGO	60680-5398	PO BOX 805398		US	PA	232990190			1-LAF	1	1231	10-Q	20090630	2009	Q2	20090724	2009-07-24 15:32:00.0	0	0	exc-20090630.xml	4	1168165 78100 22606
0001193125-09-154939	100885	UNION PACIFIC CORP	4011	US	NE	OMAHA	68179	1400 DOUGLAS STREET	STOP 0310	402 544 5214	US	NE	OMAHA	68179	1400 DOUGLAS STREET	STOP 0310	US	UT	132626465			1-LAF	1	1231	10-Q	20090630	2009	Q2	20090724	2009-07-24 16:07:00.0	0	0	unp-20090630.xml	1	
0000950123-09-025764	30554	DUPONT E I DE NEMOURS & CO	2820	US	DE	WILMINGTON	19898	1007 MARKET ST		3027741000	US	DE	WILMINGTON	19898	1007 MARKET ST		US	DE	510014090			1-LAF	1	1231	10-Q	20090630	2009	Q2	20090727	2009-07-27 16:41:00.0	0	0	dd-20090630.xml	1	
0001193125-09-155582	86144	SAFEWAY INC	5411	US	CA	PLEASANTON	94588	5918 STONERIDGE MALL RD		9254673000	US	CA	PLEASANTON	94588	5918 STONERIDGE MALL ROAD		US	DE	943019135	SAFEWAY STORES INC	19900226	1-LAF	1	1231	10-Q	20090630	2009	Q2	20090727	2009-07-27 12:58:00.0	0	0	swy-20090620.xml	1	
0001193125-09-155628	79879	PPG INDUSTRIES INC	2851	US	PA	PITTSBURGH	15272	ONE PPG PL 40 EAST		4124343131	US	PA	PITTSBURGH	15272	ONE PPG PL 40 EAST		US	PA	250730780	PITTSBURGH PLATE GLASS CO	19681219	1-LAF	1	1231	10-Q	20090630	2009	Q2	20090727	2009-07-27 13:51:00.0	0	0	ppg-20090630.xml	1	
0001193125-09-155929	9892	BARD C R INC /NJ/	3841	US	NJ	MURRAY HILL	07974	730 CENTRAL AVE		9082778000	US	NJ	MURRAY HILL	07974	730 CENTRAL AVENUE		US	NJ	221454160			1-LAF	1	1231	10-Q	20090630	2009	Q2	20090727	2009-07-27 17:15:00.0	0	0	bcr-20090630.xml	1	
0000930413-09-003869	1022079	QUEST DIAGNOSTICS INC	8071	US	NJ	MADISON	07940	3 GIRALDA FARMS		9735202700	US	NJ	MADISON	07940	3 GIRALDA FARMS		US	DE	161387862	CORNING CLINICAL LABORATORIES INC	19960903	1-LAF	1	1231	10-Q	20090630	2009	Q2	20090728	2009-07-28 17:08:00.0	0	0	dgx-20090630.xml	1	
0000950123-09-026374	927653	MCKESSON CORP	5122	US	CA	SAN FRANCISCO	94104	ONE POST ST	MCKESSON PLAZA	4159838300	US	CA	SAN FRANCISCO	94104	ONE POST ST		US	DE	943207296	MCKESSON HBOC INC	19990115	1-LAF	1	0331	10-Q	20090630	2009	Q1	20090728	2009-07-28 16:45:00.0	0	0	mck-20090630.xml	1	
0000950123-09-026402	10456	BAXTER INTERNATIONAL INC	3841	US	IL	DEERFIELD	60015	ONE BAXTER PKWY	DF2-1W	8479482000	US	IL	DEERFIELD	60015	ONE BAXTER PARKWAY	DF2-1W	US	DE	360781620	BAXTER TRAVENOL LABORATORIES INC	19880522	1-LAF	1	1231	10-Q	20090630	2009	Q2	20090728	2009-07-28 17:12:00.0	0	0	bax-20090630.xml	1	
0001104659-09-045198	51143	INTERNATIONAL BUSINESS MACHINES CORP	3570	US	NY	ARMONK	10504	1 NEW ORCHARD ROAD		9144991900	US	NY	ARMONK	10504	1 NEW ORCHARD RD		US	NY	130871985			1-LAF	1	1231	10-Q	20090630	2009	Q2	20090728	2009-07-28 14:07:00.0	0	0	ibm-20090630.xml	1	
0001167379-09-000099	1167379	ALCON INC	3851	US	TX	FORT WORTH	76134	6201 SOUTH FREEWAY		8175686248	CH		SWITZERLAND	0000	BOSCH 69 6331 HUNENBERG		CH		980205094			1-LAF	1	1231	6-K/A	20090630	2009	Q2	20090728	2009-07-28 15:42:00.0	0	0	acl-20090630.xml	1	
0001193125-09-156564	1339947	VIACOM INC.	4841	US	NY	NEW YORK	10036	1515 BROADWAY		(212) 258-6000	US	NY	NEW YORK	10036	1515 BROADWAY		US	DE	203515052	NEW VIACOM CORP.	20050927	1-LAF	1	1231	10-Q	20090630	2009	Q2	20090728	2009-07-28 10:53:00.0	0	0	via-20090630.xml	1	
0001193125-09-156720	1070750	HOST HOTELS & RESORTS, INC.	6798	US	MD	BETHESDA	20817	6903 ROCKLEDGE DR	SUITE 1500	240-744-1000	US	MD	BETHESDA	20817-1109	HOST MARRIOTT CORP	6903 ROCKLEDGE DR., SUITE 1500	US	MD	530085950	HOST MARRIOTT CORP/	19981229	1-LAF	1	1231	10-Q	20090630	2009	Q2	20090728	2009-07-28 13:36:00.0	0	0	hst-20090619.xml	1	
0001193125-09-156797	1163302	UNITED STATES STEEL CORP	3312	US	PA	PITTSBURGH	15219-2800	600 GRANT ST	ROOM 1500	415 433 2967							US	DE	251897152	UNITED STATES STEEL LLC	20011205	1-LAF	1	1231	10-Q	20090630	2009	Q2	20090728	2009-07-28 14:41:00.0	0	0	x-20090630.xml	1	
0001193125-09-156904	896262	AMEDISYS INC	8082	US	LA	BATON ROUGE	70816	5959 S SHERWOOD FOREST BLVD		2252922031	US	LA	BATON ROUGE	70816	5959 S SHERWOOD FOREST BLVD		US	DE	113131700	ANALYTICAL NURSING MANAGEMENT CORP	19940819	1-LAF	1	1231	10-Q	20090630	2009	Q2	20090728	2009-07-28 16:01:00.0	0	0	amed-20090630.xml	1	
0000024741-09-000027	24741	CORNING INC /NY	3357	US	NY	CORNING	14831	ONE RIVERFRONT PLAZA		6079749000	US	NY	CORNING	14831	ONE RIVERFRONT PLAZA		US	NY	160393470	CORNING GLASS WORKS	19890512	1-LAF	1	1231	10-Q	20090630	2009	Q2	20090729	2009-07-29 16:03:00.0	0	0	glw-20090630.xml	1	
0000950123-09-026632	1105705	TIME WARNER INC.	7812	US	NY	NEW YORK	10019	ONE TIME WARNER CENTER		2124848000	US	NY	NEW YORK	10019	ONE TIME WARNER CENTER		US	DE	134099534	TIME WARNER INC	20031015	1-LAF	1	1231	10-Q	20090630	2009	Q2	20090729	2009-07-29 07:11:00.0	0	0	twx-20090630.xml	1	
0000950123-09-026820	949039	DIAMOND OFFSHORE DRILLING INC	1381	US	TX	HOUSTON	77094	15415 KATY FREEWAY		7134925300	US	TX	HOUSTON	77094	15415 KATY FREEWAY		US	DE	760321760			1-LAF	1	1231	10-Q	20090630	2009	Q2	20090729	2009-07-29 13:21:00.0	0	0	do-20090630.xml	1	
0000950123-09-026861	64040	MCGRAW-HILL COMPANIES INC	2731	US	NY	NEW YORK	10020	1221 AVENUE OF THE AMERICAS		2125122000	US	NY	NEW YORK	10020	1221 AVENUE OF THE AMERICAS		US	NY	131026995	MCGRAW HILL INC	19920703	1-LAF	1	1231	10-Q	20090630	2009	Q2	20090729	2009-07-29 14:20:00.0	0	0	mhp-20090630.xml	1	
0000950123-09-026905	95521	SUPERVALU INC	5411	US	MN	EDEN PRAIRIE	55344	11840 VALLEY VIEW RD		9528284000	US	MN	EDEN PRAIRIE	55344	11840 VALLEY VIEW ROAD		US	DE	410617000	SUPER VALU STORES INC	19920703	1-LAF	1	0228	10-Q	20090630	2009	Q2	20090729	2009-07-29 15:10:00.0	0	0	svu-20090620.xml	1	
0000950123-09-026987	30625	FLOWSERVE CORP	3561	US	TX	IRVING	75039	5215 N. O'CONNOR BLVD.	SUITE 2300	9724436500	US	TX	IRVING	75039	5215 N. O'CONNOR BLVD.	SUITE 2300	US	NY	310267900	DURCO INTERNATIONAL INC	19970508	1-LAF	1	1231	10-Q	20090630	2009	Q2	20090729	2009-07-29 16:21:00.0	0	0	fls-20090630.xml	1	
0000950123-09-027003	908255	BORGWARNER INC	3714	US	MI	AUBURN HILLS	48326	3850 HAMLIN RD.		2487549200	US	MI	AUBURN HILLS	48326	3850 HAMLIN RD.		US	DE	133404508	BORG WARNER AUTOMOTIVE INC	19930628	1-LAF	1	1231	10-Q	20090630	2009	Q2	20090729	2009-07-29 16:28:00.0	0	0	bwa-20090630.xml	1	
0000950123-09-027011	1170650	MEDCO HEALTH SOLUTIONS INC	5912	US	NJ	FRANKLIN LAKES	07417	100 PARSONS POND DR		2012693400	US	NJ	FRANKLIN LAKES	07417	100 PARSONS POND DR		US	DE	223461740	MEDCOHEALTH SOLUTIONS INC	20020528	1-LAF	1	1231	10-Q	20090630	2009	Q2	20090729	2009-07-29 16:34:00.0	0	0	mhs-20090627.xml	1	
0000950123-09-027072	1306830	CELANESE CORP	2820	US	TX	DALLAS	75234	1601 W. LBJ FREEWAY		972-443-4000	US	TX	DALLAS	75234	1601 W. LBJ FREEWAY		US	DE	980420726	BLACKSTONE CRYSTAL HOLDINGS CAPITAL PARTNERS (CAYMAN) IV LTD.	20041022	1-LAF	1	1231	10-Q	20090630	2009	Q2	20090729	2009-07-29 17:14:00.0	0	0	ce-20090630.xml	1	
0001104659-09-045366	1274057	HOSPIRA INC	2834	US	IL	LAKE FOREST	60045	275 FIELD DR		8479376472							US	DE	000000000			1-LAF	1	1231	10-Q	20090630	2009	Q2	20090729	2009-07-29 08:03:00.0	0	0	hsp-20090630.xml	1	
0001104659-09-045570	33213	EQT CORP	4923	US	PA	PITTSBURGH	15212-5861	225 NORTH SHORE DR		4125535700	US	PA	PITTSBURGH	15212-5861	225 NORTH SHORE DR		US	PA	250464690	EQT CORP /PA/	20090206	1-LAF	1	1231	10-Q	20090630	2009	Q2	20090729	2009-07-29 16:17:00.0	0	0	eqt-20090630.xml	1	
0001140361-09-017223	97476	TEXAS INSTRUMENTS INC	3674	US	TX	DALLAS	75266	P.O. BOX 660199		9729953773	US	TX	DALLAS	75266	12500 TI BLVD	PO BOX 660199	US	DE	750289970			1-LAF	1	1231	10-Q	20090630	2009	Q2	20090729	2009-07-29 17:24:00.0	0	0	txn-20090630.xml	1	
0001193125-09-157212	1065088	EBAY INC	7389	US	CA	SAN JOSE	95125	2145 HAMILTON AVENUE		408-376-7400	US	CA	SAN JOSE	95125	2145 HAMILTON AVENUE		US	DE	770430924			1-LAF	1	1231	10-Q	20090630	2009	Q2	20090729	2009-07-28 20:38:00.0	0	0	ebay-20090630.xml	1	
0001193125-09-157960	63276	MATTEL INC /DE/	3942	US	CA	EL SEGUNDO	90245	333 CONTINENTAL BLVD		3102522000							US	DE	951567322			1-LAF	1	1231	10-Q	20090630	2009	Q2	20090729	2009-07-29 13:51:00.0	0	0	mat-20090630.xml	1	
0001193125-09-158007	87347	SCHLUMBERGER LTD /NV/	1389	US	TX	HOUSTON	77056	5599 SAN FELIPE	17TH FLOOR	7135132000	US	TX	HOUSTON	77056	5599 SAN FELIPE	17TH FLOOR	AN		520684746	SCHLUMBERGER NV	19920804	1-LAF	1	1231	10-Q	20090630	2009	Q2	20090729	2009-07-29 14:37:00.0	0	0	slb-20090630.xml	1	
0001193125-09-158140	818686	TEVA PHARMACEUTICAL INDUSTRIES LTD	2834	IL		PETACH TIKVA	49131	5 BAZEL ST	P O B 3190		IL		PETACH TIKVA	49131	TEVA PHARMACEUTICAL INDUSTRIES LIMITED	5 BAZEL ST PO B 3190	IL		000000000			1-LAF	1	1231	6-K	20090630	2009	Q2	20090729	2009-07-29 16:10:00.0	0	0	teva-20090630.xml	1	
0001193125-09-158214	1156039	WELLPOINT INC	6324	US	IN	INDIANAPOLIS	46204	120 MONUMENT CIRCLE		3174886000	US	IN	INDIANAPOLIS	46204	120 MONUMENT CIRCLE		US	IN	352145715	ANTHEM INC	20010730	1-LAF	1	1231	10-Q	20090630	2009	Q2	20090729	2009-07-29 16:43:00.0	0	0	wlp-20090630.xml	1	
0001193125-09-158218	884905	PRAXAIR INC	2810	US	CT	DANBURY	06810-5113	39 OLD RIDGEBURY RD		2038372000	US	CT	DANBURY	06810-5113	39 OLD RIDGEBURY ROAD		US	DE	061249050	UNION CARBIDE INDUSTRIAL GASES INC	19600201	1-LAF	1	1231	10-Q	20090630	2009	Q2	20090729	2009-07-29 16:47:00.0	0	0	px-20090630.xml	1	
0000045012-09-000273	45012	HALLIBURTON CO	1389	US	TX	HOUSTON	77010	1401MCKINNEY	1401 MCKINNEY	7137592600	US	TX	HOUSTON	77010	1401 MCKINNEY	1401 MCKINNEY	US	DE	752677995	HALLIBURTON OIL WELL CEMENTING CO	19660911	1-LAF	1	1231	10-Q/A	20090630	2009	Q2	20090730	2009-07-30 11:18:00.0	0	0	hal-20090630.xml	1	
0000072207-09-000031	72207	NOBLE ENERGY INC	1311	US	TX	HOUSTON	77067	100 GLENBOROUGH	SUITE 100	2818723100	US	TX	HOUSTON	77067	100 GLENBOROUGH	SUITE 100	US	DE	730785597	NOBLE AFFILIATES INC	20020426	1-LAF	1	1231	10-Q	20090630	2009	Q2	20090730	2009-07-30 12:06:00.0	0	0	nbl-20090630.xml	1	
0000097216-09-000168	97216	TEREX CORP	3537	US	CT	WESTPORT	06880	200 NYALA FARM ROAD		2032227170	US	CT	WESTPORT	06880	200 NYALA FARM ROAD		US	DE	341531521	BLACK MAMMOTH CONSOLIDATED MINING CO	19671002	1-LAF	1	1231	10-Q	20090630	2009	Q2	20090730	2009-07-30 16:23:00.0	0	0	tex-20090630.xml	1	
0000818479-09-000123	818479	DENTSPLY INTERNATIONAL INC /DE/	3843	US	PA	YORK	17405	SUSQUEHANNA COMMERCE CENTER	221 W. PHILADELPHIA STREET	7178457511	US	PA	YORK	17405	SUSQUEHANNA COMMERCE CENTER	221 W. PHILADELPHIA STREET	US	DE	391434669	GENDEX CORP	19920703	1-LAF	1	1231	10-Q	20090630	2009	Q2	20090730	2009-07-30 17:29:00.0	0	0	xray-20090630.xml	1	
0000885721-09-000063	885721	EXPRESS SCRIPTS INC	5912	US	MO	ST LOUIS	63121	ONE EXPRESS WAY		3149960900	US	MO	ST LOUIS	63121	ONE EXPRESS WAY		US	DE	431420563			1-LAF	1	1231	10-Q/A	20090630	2009	Q2	20090730	2009-07-29 19:08:00.0	1	0	esrx-20090630.xml	1	
0000885721-09-000066	885721	EXPRESS SCRIPTS INC	5912	US	MO	ST LOUIS	63121	ONE EXPRESS WAY		3149960900	US	MO	ST LOUIS	63121	ONE EXPRESS WAY		US	DE	431420563			1-LAF	1	1231	10-Q/A	20090630	2009	Q2	20090730	2009-07-30 17:02:00.0	0	0	esrx-20090630.xml	1	
0000915389-09-000055	915389	EASTMAN CHEMICAL CO	2821	US	TN	KINGSPORT	37660	PO BOX 511	200 SOUTH WILCOX DRIVE	4232292000	US	TN	KINGSPORT	37662	P O BOX BOX 511 B-54D		US	DE	621539359			1-LAF	1	1231	10-Q	20090630	2009	Q2	20090730	2009-07-30 15:58:00.0	0	0	emn-20090630.xml	1	
0000950123-09-027154	39899	GANNETT CO INC /DE/	2711	US	VA	MCLEAN	22107-0910	7950 JONES BRANCH DRIVE		7038546000	US	VA	MCLEAN	22107-0910	7950 JONES BRANCH DRIVE		US	DE	160442930			1-LAF	1	1231	10-Q	20090630	2009	Q2	20090730	2009-07-29 19:35:00.0	0	0	gci-20090628.xml	1	
0000950123-09-027482	823768	WASTE MANAGEMENT INC	4953	US	TX	HOUSTON	77002	1001 FANNIN STREET	STE 4000	7135126200	US	TX	HOUSTON	77002	1001 FANNIN STREET	SUITE 4000	US	DE	731309529	USA WASTE SERVICES INC	19920703	1-LAF	1	1231	10-Q	20090630	2009	Q2	20090730	2009-07-30 12:00:00.0	0	0	wmi-20090630.xml	1	
0000950123-09-027485	1424847	LORILLARD, INC.	2111	US	NC	GREENSBORO	27408	714 GREEN VALLEY ROAD		336.335.7000	US	NC	GREENSBORO	27408	714 GREEN VALLEY ROAD		US	DE	131911176			1-LAF	1	1231	10-Q	20090630	2009	Q2	20090730	2009-07-30 12:03:00.0	0	0	lo-20090630.xml	1	
0000950123-09-027630	54480	KANSAS CITY SOUTHERN	4011	US	MO	KANSAS CITY	64105	427 W 12TH STREET		8169831303	US	MO	KANSAS CITY	64121	PO BOX 219335		US	DE	440663509	KANSAS CITY SOUTHERN INDUSTRIES INC	19920703	1-LAF	1	1231	10-Q	20090630	2009	Q2	20090730	2009-07-30 15:39:00.0	0	0	ksu-20090630.xml	1	
0000950123-09-027684	356028	CA, INC.	7372	US	NY	ISLANDIA	11749	ONE CA PLAZA		6313423550	US	NY	ISLANDIA	11749	ONE CA PLAZA		US	DE	132857434	COMPUTER ASSOCIATES INTERNATIONAL INC	19920703	1-LAF	1	0331	10-Q/A	20090630	2009	Q1	20090730	2009-07-30 16:18:00.0	0	0	ca-20090630.xml	1	
0000950123-09-027787	701221	CIGNA CORP	6324	US	PA	PHILADELPHIA	19192-1550	ONE LIBERTY PLACE	1601 CHESTNUT STREET	2157611000	US	PA	PHILADELPHIA	19192	TWO LIBERTY PLACE 48TH FLOOR	1601 CHESTNUT STREET	US	DE	061059331			1-LAF	1	1231	10-Q	20090630	2009	Q2	20090730	2009-07-30 17:11:00.0	0	0	ci-20090630.xml	1	
0001047469-09-006994	1037949	QWEST COMMUNICATIONS INTERNATIONAL INC	4813	US	CO	DENVER	80202	1801 CALIFORNIA ST		3039921400	US	CO	DENVER	80202	1801 CALIFORNIA ST		US	DE	841339282	QUEST COMMUNICATIONS INTERNATIONAL INC	19970416	1-LAF	1	1231	10-Q	20090630	2009	Q2	20090730	2009-07-29 18:14:00.0	1	0	qcii-20090630.xml	1	
0001047469-09-007013	21344	COCA COLA CO	2080	US	GA	ATLANTA	30313	ONE COCA COLA PLAZA		404-676-2121	US	GA	ATLANTA	30313	ONE COCA COLA PLAZA		US	DE	580628465			1-LAF	1	1231	10-Q	20090630	2009	Q2	20090730	2009-07-30 10:33:00.0	0	0	ko-20090703.xml	1	
0001047469-09-007036	833444	TYCO INTERNATIONAL LTD /BER/	7380	BM		PEMROKE HM 08 BERMU		90 PITTS BAY ROAD	THE ZURICH CENTRE SECOND FLOOR	4412928674	US	NH	EXETER	03833	C/O TYCO INTERNATIONAL (US) INC	ONE TYCO PARK	BM		000000000	ADT LIMITED	19930601	1-LAF	1	0930	10-Q	20090630	2009	Q3	20090730	2009-07-30 17:16:00.0	0	0	tyc-20090626.xml	1	
0001104659-09-045874	26172	CUMMINS INC	3510	US	IN	COLUMBUS	47202-3005	500 JACKSON ST	BOX 3005 MAIL CODE 60207	8123773842	US	IN	COLUMBUS	47202-3005	BOX 3005 MAIL CODE 60207	500	US	IN	350257090	CUMMINS ENGINE CO INC	19920703	1-LAF	1	1231	10-Q	20090630	2009	Q2	20090730	2009-07-30 12:38:00.0	0	0	cmi-20090628.xml	1	
0001140361-09-017252	1357615	KBR, INC.	1600	US	TX	HOUSTON	77002	601 JEFFERSON STREET	SUITE 3400	(713) 753-3834	US	TX	HOUSTON	77002	601 JEFFERSON STREET	SUITE 3400	US	DE	204536774			1-LAF	0	1231	10-Q	20090630	2009	Q2	20090730	2009-07-30 06:56:00.0	0	0	kbr-20090630.xml	1	
0001140361-09-017288	21665	COLGATE PALMOLIVE CO	2844	US	NY	NEW YORK	10022	300 PARK AVE		2123102000	US	NY	NEW YORK	10022	300 PARK AVE	14TH FLOOR	US	DE	131815595			1-LAF	1	1231	10-Q	20090630	2009	Q2	20090730	2009-07-30 15:04:00.0	0	0	cl-20090630.xml	1	
0001193125-09-158470	52988	JACOBS ENGINEERING GROUP INC /DE/	1600	US	CA	PASADENA	91105-3063	1111 S ARROYO PARKWAY		6265783500							US	DE	954081636			1-LAF	1	0930	10-Q	20090630	2009	Q3	20090730	2009-07-29 20:34:00.0	0	0	jec-20090630.xml	1	
0001193125-09-158844	8868	AVON PRODUCTS INC	2844	US	NY	NEW YORK	10105-0196	1345 AVENUE OF THE AMERICAS		212-282-5000	US	NY	NEW  YORK	10105-0196	1345 AVENUE OF THE AMERICAS		US	NY	130544597			1-LAF	1	1231	10-Q	20090630	2009	Q2	20090730	2009-07-30 07:31:00.0	0	0	avp-20090630.xml	1	
0001193125-09-159399	764065	CLIFFS NATURAL RESOURCES INC.	1000	US	OH	CLEVELAND	44114-2315	200 PUBLIC SQUARE	STE. 3300	216-694-5700	US	OH	CLEVELAND	44114-2315	200 PUBLIC SQUARE	STE. 3300	US	OH	341464672	CLEVELAND CLIFFS INC	19920703	1-LAF	1	1231	10-Q	20090630	2009	Q2	20090730	2009-07-30 14:50:00.0	0	0	clf-20090630.xml	1	
0001193125-09-159490	858470	CABOT OIL & GAS CORP	1311	US	TX	HOUSTON	77077	1200 ENCLAVE PARKWAY		2815894600							US	DE	043072771			1-LAF	1	1231	10-Q	20090630	2009	Q2	20090730	2009-07-30 15:42:00.0	0	0	cog-20090630.xml	1	
0001193125-09-159615	1385187	COVIDIEN PLC	3841	IE		LOUGHLINSTOWN	DUBLIN 18	CHERRYWOOD BUSINESS PARK	BLOCK G, FIRST FLOOR	353 1 439-3000	IE		LOUGHLINSTOWN	DUBLIN 18	CHERRYWOOD BUSINESS PARK	BLOCK G, FIRST FLOOR			980624794	COVIDIEN LTD.	20070321	1-LAF	1	0930	10-Q	20090630	2009	Q3	20090730	2009-07-30 16:36:00.0	0	0	cov-20090626.xml	1	
0001193125-09-159648	732712	VERIZON COMMUNICATIONS INC	4813	US	NY	NEW YORK	10007	140 WEST STREET	29TH FLOOR	212-395-1000	US	NY	NEW YORK	10007	140 WEST STREET	29TH FLOOR	US	DE	232259884	BELL ATLANTIC CORP	19920703	1-LAF	1	1231	10-Q	20090630	2009	Q2	20090730	2009-07-30 16:51:00.0	0	0	vz-20090630.xml	1	
0001193125-09-159652	804055	COCA COLA ENTERPRISES INC	2086	US	GA	ATLANTA	30339	2500 WINDY RIDGE PKWY		7709893000	US	GA	ATLANTA	30339	2500 WINDY RIDGE PKWY		US	DE	580503352			1-LAF	1	1231	10-Q	20090630	2009	Q2	20090730	2009-07-30 16:52:00.0	0	0	cce-20090703.xml	1	
0001193125-09-159667	1001039	WALT DISNEY CO/	7990	US	CA	BURBANK	91521	500 SOUTH BUENA VISTA ST		8185601000	US	CA	BURBANK	91521	500 SOUTH BUENA VISTA ST		US	DE	954545390	DC HOLDCO INC	19950918	1-LAF	1	0930	10-Q	20090630	2009	Q3	20090730	2009-07-30 16:59:00.0	0	0	dis-20090627.xml	1	
0001193125-09-159678	1403161	VISA INC.	7389	US	CA	SAN FRANCISCO	94128-8999	P.O. BOX 8999		(415) 932-2100	US	CA	SAN FRANCISCO	94128-8999	P.O. BOX 8999		US	DE	260267673	VISA INC.	20070614	1-LAF	1	0930	10-Q	20090630	2009	Q3	20090730	2009-07-30 17:06:00.0	0	0	v-20090630.xml	1	
0000086521-09-000047	1032208	SEMPRA ENERGY	4932	US	CA	SAN DIEGO	92101	101 ASH STREET	P O BOX 129400	6196962000	US	CA	SAN DIEGO	92101	101 ASH STREET	P O BOX 129400	US	CA	330732627	MINERAL ENERGY CO	19970205	1-LAF	1	1231	10-Q	20090630	2009	Q2	20090731	2009-07-31 16:07:00.0	0	0	sre-20090630.xml	4	75527 86521 92108
0000097745-09-000040	97745	THERMO FISHER SCIENTIFIC INC.	3829	US	MA	WALTHAM	02451	81 WYMAN ST	PO BOX 9046	7816221000	US	MA	WALTHAM	02451	81 WYMAN ST	PO BOX 9046	US	DE	042209186	THERMO ELECTRON CORP	19920703	1-LAF	1	1231	10-Q	20090630	2009	Q2	20090731	2009-07-31 10:08:00.0	0	0	tmo-20090627.xml	1	
0000217346-09-000117	217346	TEXTRON INC	3720	US	RI	PROVIDENCE	02903	40 WESTMINSTER ST		4014212800	US	RI	PROVIDENCE	02903	40 WESTMINSTER ST		US	DE	050315468	AMERICAN TEXTRON INC	19710510	1-LAF	1	1231	10-Q	20090630	2009	Q2	20090731	2009-07-31 11:59:00.0	0	0	txt-20090704.xml	1	
0000277135-09-000023	277135	GRAINGER W W INC	5000	US	IL	LAKE FOREST	60045-5201	100 GRAINGER PARKWAY		847-535-1000	US	IL	LAKE FOREST	60045	100 GRAINGER PARKWAY		US	IL	361150280			1-LAF	1	1231	10-Q	20090630	2009	Q2	20090731	2009-07-31 11:12:00.0	0	0	gww-20090630.xml	1	
0000753308-09-000086	753308	FPL GROUP INC	4911	US	FL	JUNO BEACH	33408	700 UNIVERSE BLVD		5616946311	US	FL	JUNO BEACH	33408	P O BOX 14000		US	FL	592449419			1-LAF	1	1231	10-Q	20090630	2009	Q2	20090731	2009-07-31 14:36:00.0	0	0	fpl-20090630.xml	2	37634
0000950123-09-028069	1275283	REYNOLDS AMERICAN INC	2111	US	NC	WINSTON SALEM	27102	401 NORTH MAIN ST		3367412000	US	NC	WINSTON SALEM	27102	401 NORTH MAIN ST				200546644			1-LAF	1	1231	10-Q	20090630	2009	Q2	20090731	2009-07-31 08:54:00.0	0	0	rai-20090630.xml	1	
0000950123-09-028093	89800	SHERWIN WILLIAMS CO	5200	US	OH	CLEVELAND	44115	101 PROSPECT AVE NW		2165662200							US	OH	340526850			1-LAF	1	1231	10-Q	20090630	2009	Q2	20090731	2009-07-31 10:08:00.0	0	0	shw-20090630.xml	1	
0000950123-09-028099	59478	LILLY ELI & CO	2834	US	IN	INDIANAPOLIS	46285	LILLY CORPORATE CTR	DROP CODE 1112	3172762000	US	IN	INDIANAPOLIS	46285	LILLY CORPORATE CENTER	DROP CODE 1112	US	IN	350470950			1-LAF	1	1231	10-Q	20090630	2009	Q2	20090731	2009-07-31 10:23:00.0	0	0	lly-20090630.xml	1	
0000950123-09-028100	914208	INVESCO LTD.	6282	US	GA	ATLANTA	30309	1555 PEACHTREE STREET NE	SUITE 1800	404-892-0896	US	GA	ATLANTA	30309	1555 PEACHTREE STREET NE	SUITE 1800	BM		980557567	INVESCO LTD	20080508	1-LAF	1	1231	10-Q	20090630	2009	Q2	20090731	2009-07-31 10:24:00.0	0	0	ivz-20090630.xml	1	
0000950123-09-028388	816284	CELGENE CORP /DE/	2834	US	NJ	SUMMIT	07901	86 MORRIS AVENUE		(908)673-9000	US	NJ	SUMMIT	07901	86 MORRIS AVENUE		US	DE	222711928			1-LAF	1	1231	10-Q	20090630	2009	Q2	20090731	2009-07-31 16:23:00.0	0	0	celg-20090630.xml	1	
0000950123-09-028453	1163739	NABORS INDUSTRIES LTD	1381	BM		HAMILTON, HM08	0000	MINTFLOWER PLACE	8 PAR-LA-VILLE ROAD	2464219471	BM		HAMILTON, HMPX	0000	P O BOX HM3349		BM		980363970			1-LAF	1	1231	10-Q	20090630	2009	Q2	20090731	2009-07-31 17:18:00.0	0	1	nbr-20090630.xml	1	
0001047469-09-007070	1385157	TYCO ELECTRONICS LTD.	5065	BM		PEMBROKE	HM08	96 PITTS BAY ROAD, 2ND FL		(441) 298-9732	BM		PEMBROKE	HM08	96 PITTS BAY ROAD, 2ND FL		BM		980518048			1-LAF	1	0930	10-Q	20090630	2009	Q3	20090731	2009-07-31 15:24:00.0	0	0	tel-20090626.xml	1	
0001047469-09-007075	1037949	QWEST COMMUNICATIONS INTERNATIONAL INC	4813	US	CO	DENVER	80202	1801 CALIFORNIA ST		3039921400	US	CO	DENVER	80202	1801 CALIFORNIA ST		US	DE	841339282	QUEST COMMUNICATIONS INTERNATIONAL INC	19970416	1-LAF	1	1231	10-Q/A	20090630	2009	Q2	20090731	2009-07-31 16:56:00.0	0	0	qcii-20090630.xml	1	
0001104659-09-046313	72903	XCEL ENERGY INC	4931	US	MN	MINNEAPOLIS	55402	800 NICOLLET MALL		6123305500	US	MN	MINNEAPOLIS	55401	800 NICOLLET MALL		US	MN	410448030	NORTHERN STATES POWER CO /MN/	19920703	1-LAF	1	1231	10-Q	20090630	2009	Q2	20090731	2009-07-31 15:46:00.0	0	0	xel-20090630.xml	1	
0001104659-09-046329	66740	3M CO	3841	US	MN	ST PAUL	55144-1000	3M CENTER	BLDG. 220-11W-02	6517332204	US	MN	ST. PAUL	55144-1000	3M CENTER	BLDG. 220-11W-02	US	DE	410417775	MINNESOTA MINING & MANUFACTURING CO	19920703	1-LAF	1	1231	10-Q	20090630	2009	Q2	20090731	2009-07-31 16:21:00.0	0	0	mmm-20090630.xml	1	
0001122304-09-000091	1122304	AETNA INC /PA/	6324	US	CT	HARTFORD	06156	151 FARMINGTON AVENUE		8602730123	US	CT	HARTFORD	06156	151 FARMINGTON AVENUE		US	PA	232229683	AETNA U S HEALTHCARE INC	20000822	1-LAF	1	1231	10-Q	20090630	2009	Q2	20090731	2009-07-31 08:42:00.0	0	0	aet-20090630.xml	1	
0001193125-09-159733	1141391	MASTERCARD INC	7389	US	NY	PURCHASE	10577	2000 PURCHASE STREET		9142492000	US	NY	PURCHASE	10577	2000 PURCHASE STREET		US	DE	134172551			1-LAF	1	1231	10-Q	20090630	2009	Q2	20090731	2009-07-30 18:00:00.0	0	0	ma-20090630.xml	1	
0001193125-09-160240	931148	GRAFTECH INTERNATIONAL LTD	3620	US	OH	PARMA	44130	12900 SNOW ROAD		2166762000	US	OH	PARMA	44130	12900 SNOW ROAD		US	DE	061385548	UCAR INTERNATIONAL INC	19941011	1-LAF	1	1231	10-Q	20090630	2009	Q2	20090731	2009-07-31 08:23:00.0	0	0	gti-20090630.xml	1	
0001193125-09-160726	793952	HARLEY DAVIDSON INC	3751	US	WI	MILWAUKEE	53208	3700 W JUNEAU AVE		4143424680							US	WI	391382325			1-LAF	1	1231	10-Q	20090630	2009	Q2	20090731	2009-07-31 15:24:00.0	0	0	hog-20090628.xml	1	
0001193125-09-160729	1065280	NETFLIX INC	7841	US	CA	LOS GATOS	95032	100 WINCHESTER CIRCLE	.	408-540-3700	US	CA	LOS GATOS	95032-7606	100 WINCHESTER CIRCLE		US	DE	770467272	NETFLIX COM INC	20000229	1-LAF	1	1231	10-Q	20090630	2009	Q2	20090731	2009-07-31 15:27:00.0	0	0	nflx-20090630.xml	1	
0001193125-09-160797	715957	DOMINION RESOURCES INC /VA/	4911	US	VA	RICHMOND	23219	120 TREDEGAR STREET		8048192000	US	VA	RICHMOND	23261	P. O. BOX 26532		US	VA	541229715			1-LAF	1	1231	10-Q	20090630	2009	Q2	20090731	2009-07-31 16:03:00.0	0	0	d-20090630.xml	1	
0001193125-09-160870	1276520	GENWORTH FINANCIAL INC	6311	US	VA	RICHMOND	23230	6620 WEST BROAD STREET		804-281-6000	US	VA	RICHMOND	23230	6620 WEST BROAD STREET		US	DE	331073076			1-LAF	1	1231	10-Q	20090630	2009	Q2	20090731	2009-07-31 16:39:00.0	0	0	gnw-20090630.xml	1	
0000029915-09-000044	29915	DOW CHEMICAL CO /DE/	2821	US	MI	MIDLAND	48674-2030	2030 DOW CENTER		989-636-1000	US	MI	MIDLAND	48674-2030	2030 DOW CENTER		US	DE	381285128			1-LAF	1	1231	10-Q	20090630	2009	Q2	20090803	2009-08-03 13:01:00.0	0	0	dow-20090630.xml	1	
0000040545-09-000049	40545	GENERAL ELECTRIC CO	3600	US	CT	FAIRFIELD	06828	3135 EASTON TURNPIKE	W3F	203-373-2211	US	CT	FAIRFIELD	06828	3135 EASTON TURNPIKE	W3F	US	NY	140689340			1-LAF	1	1231	10-Q	20090630	2009	Q2	20090803	2009-08-03 09:58:00.0	0	0	ge-20090630.xml	1	
0000930413-09-003976	788784	PUBLIC SERVICE ENTERPRISE GROUP INC	4931	US	NJ	NEWARK	07102-4194	CORPORATE ACCOUNTING SERVICES	80 PARK PLAZA, 9TH FLOOR	973-430-7000	US	NJ	NEWARK	07102-4194	CORPORATE ACCOUNTING SERVICES	80 PARK PLAZA, 9TH FLOOR	US	NJ	222625848			1-LAF	1	1231	10-Q	20090630	2009	Q2	20090803	2009-07-31 20:32:00.0	0	0	peg-20090630.xml	3	1158659 81033
0000930413-09-003987	773840	HONEYWELL INTERNATIONAL INC	3714	US	NJ	MORRISTOWN	07962	101 COLUMBIA RD	PO BOX 4000	9734552000	US	NJ	MORRISTOWN	07962	101 COLUMBIA RD P O BOX 4000	101 COLUMBIA RD P O BOX 4000	US	DE	222640650	ALLIEDSIGNAL INC	19940929	1-LAF	1	1231	10-Q/A	20090630	2009	Q2	20090803	2009-08-03 15:24:00.0	0	0	hon-20090630.xml	1	
0000950123-09-028634	64978	MERCK & CO INC	2834	US	NJ	WHITEHOUSE STATION	08889-0100	ONE MERCK DR	P O BOX 100	9084231688	US	NJ	WHITEHOUSE STATION	08889-0100	ONE MERCK DR	PO BOX 100 WS3AB-05	US	NJ	221109110			1-LAF	1	1231	10-Q	20090630	2009	Q2	20090803	2009-08-03 07:37:00.0	0	0	mrk-20090630.xml	1	
0000950123-09-028717	1126294	RRI ENERGY INC	4911	US	TX	HOUSTON	77002	1000 MAIN STREET		713-497-3000	US	TX	HOUSTON	77002	1000 MAIN STREET		US	DE	760655566	RELIANT ENERGY INC	20040423	1-LAF	1	1231	10-Q	20090630	2009	Q2	20090803	2009-08-03 11:02:00.0	0	0	rri-20090630.xml	1	
0000950123-09-028851	216228	ITT CORP	3561	US	NY	WHITE PLAINS	10604	1133 WESTCHESTER AVENUE		9146412000	US	NY	WHITE PLAINS	10604	1133 WESTCHESTER AVENUE		US	IN	135158950	ITT INDUSTRIES INC	19951220	1-LAF	1	1231	10-Q	20090630	2009	Q2	20090803	2009-08-03 15:10:00.0	0	0	itt-20090630.xml	1	
0000950123-09-028880	53669	JOHNSON CONTROLS INC	2531	US	WI	MILWAUKEE	53201	5757 N GREEN BAY AVENUE	P O BOX 591	4145241200	US	WI	MILWAUKEE	53201	5757 N GREEN BAY AVENUE	P O BOX 591	US	WI	390380010			1-LAF	1	0930	10-Q	20090630	2009	Q3	20090803	2009-08-03 15:40:00.0	0	0	jci-20090630.xml	1	
0000950123-09-028975	50863	INTEL CORP	3674	US	CA	SANTA CLARA	95054	2200 MISSION COLLEGE BLVD	RNB-4-151	4087658080	US	CA	SANTA CLARA	95054	2200 MISSION COLLEGE BLVD	RNB-4-151	US	DE	941672743			1-LAF	1	1231	10-Q	20090630	2009	Q2	20090803	2009-08-03 17:09:00.0	0	0	intc-20090627.xml	1	
0001031296-09-000021	1031296	FIRSTENERGY CORP	4911	US	OH	AKRON	44308-1890	76 SOUTH MAIN ST		330-761-7837	US	OH	AKRON	44308-1890	76 SOUTH MAIN ST		US	OH	341843785			1-LAF	1	1231	10-Q	20090630	2009	Q2	20090803	2009-08-03 16:34:00.0	0	0	fe-20090630.xml	8	20947 65350 73960 77227 352049 1407703 53456
0001047469-09-007107	1324404	CF INDUSTRIES HOLDINGS, INC.	2870	US	IL	DEERFIELD	60015	4 PARKWAY NORTH	SUITE 400	(847) 405-2400	US	IL	DEERFIELD	60015	4 PARKWAY NORTH	SUITE 400	US	DE	202697511			1-LAF	1	1231	10-Q	20090630	2009	Q2	20090803	2009-08-03 14:58:00.0	1	0	cf-20090630.xml	1	
0001104659-09-046536	1001838	SOUTHERN COPPER CORP/	1000	US	AZ	PHOENIX	85028	11811 NORTH TATUM BLVD	SUITE 2500	602-494-5328	US	AZ	PHOENIX	85028	11811 NORTH TATUM BLVD	SUITE 2500	US	DE	133849074	SOUTHERN PERU COPPER CORP/	19960726	1-LAF	1	1231	10-Q	20090630	2009	Q2	20090803	2009-08-03 15:46:00.0	0	0	pcu-20090630.xml	1	
0001169232-09-003553	888228	KINDER MORGAN ENERGY PARTNERS L P	4922	US	TX	HOUSTON	77002	500 DALLAS	SUITE 1000	713-369-9000	US	TX	HOUSTON	77002	500 DALLAS	SUITE 1000	US	DE	760380342	ENRON LIQUIDS PIPELINE L P	19970304	1-LAF	1	1231	10-Q/A	20090630	2009	Q2	20090803	2009-07-31 21:33:00.0	0	0	kmp-20090630.xml	1	
0001193125-09-161831	1335793	CNX GAS CORP	1311	US	PA	CANONSBURG	15317	CNX CENTER	1000 CONSOL ENERGY DRIVE	724-485-4000	US	PA	CANONSBURG	15317	CNX CENTER	1000 CONSOL ENERGY DRIVE	US	DE	203170639	CNX GAS CORP	20050810	1-LAF	1	1231	10-Q	20090630	2009	Q2	20090803	2009-08-03 11:25:00.0	0	0	cxg-20090630.xml	1	
0001193125-09-161835	1070412	CONSOL ENERGY INC	1221	US	PA	PITTSBURGH	15241	C/O CONSOL INC	1800 WASHINGTON RD	724-485-4000	US	PA	CANONSBURG	15317	CNX CENTER	1000 CONSOL ENERGY DRIVE	US	DE	510337383	CONSOL ENERGY INC	19980915	1-LAF	1	1231	10-Q	20090630	2009	Q2	20090803	2009-08-03 11:27:00.0	0	0	cnx-20090630.xml	1	
0001193125-09-162171	90185	SIGMA ALDRICH CORP	5160	US	MO	ST LOUIS	63103	3050 SPRUCE ST		3147715765	US	MO	ST LOUIS	63103	3050 SPRUCE STREET		US	DE	431050617	SIGMA INTERNATIONAL LTD	19750925	1-LAF	1	1231	10-Q	20090630	2009	Q2	20090803	2009-08-03 15:52:00.0	0	0	sial-20090630.xml	1	
0001193125-09-162276	73124	NORTHERN TRUST CORP	6022	US	IL	CHICAGO	60603	50 S LASALLE ST		3126306000	US	IL	CHICAGO	60603	50 S LASALLE ST		US	DE	362723087	NORTRUST CORP	19780525	1-LAF	1	1231	10-Q/A	20090630	2009	Q2	20090803	2009-08-03 16:45:00.0	0	0	ntrs-20090630.xml	1	
0001193125-09-162284	108772	XEROX CORP	3577	US	CT	NORWALK	06856	45 GLOVER AVENUE	PO BOX 4505	2039683000	US	CT	NORWALK	06856	45 GLOVER AVENUE	PO BOX 4505	US	NY	160468020	HALOID XEROX INC	19730813	1-LAF	1	1231	10-Q	20090630	2009	Q2	20090803	2009-08-03 16:49:00.0	0	0	xrx-20090630.xml	1	
0001193125-09-162305	49071	HUMANA INC	6324	US	KY	LOUISVILLE	40202	500 W MAIN ST		5025801000	US	KY	LOUISVILLE	40202	500 W. MAIN ST		US	DE	610647538	EXTENDICARE INC	19740404	1-LAF	1	1231	10-Q	20090630	2009	Q2	20090803	2009-08-03 17:04:00.0	0	0	hum-20090630.xml	1	
0001274494-09-000019	1274494	FIRST SOLAR, INC.	3674	US	AZ	TEMPE	85281	350 WEST WASHINGTON STREET	SUITE 600	(602) 414-9300	US	AZ	TEMPE	85281	350 WEST WASHINGTON STREET	SUITE 600	US	DE	204623678	FIRST SOLAR HOLDINGS LLC	20031229	1-LAF	0	1231	10-Q	20090630	2009	Q2	20090803	2009-07-31 19:41:00.0	0	0	fslr-20090627.xml	1	
0000004904-09-000117	4904	AMERICAN ELECTRIC POWER CO INC	4911	US	OH	COLUMBUS	43215	1 RIVERSIDE PLAZA		614-716-1000	US	OH	COLUMBUS	43215	1 RIVERSIDE PLAZA		US	NY	134922640	KINGSPORT UTILITIES INC	19660906	1-LAF	1	1231	10-Q	20090630	2009	Q2	20090804	2009-08-04 13:32:00.0	0	0	aep-20090630.xml	1	
0000107815-09-000047	783325	WISCONSIN ENERGY CORP	4931	US	WI	MILWAUKEE	53201	231 W MICHIGAN ST	P O BOX 1331	414-221-2345	US	WI	MILWAUKEE	53201	231 WEST MICHIGAN STREET	P O BOX 1331	US	WI	391391525			1-LAF	1	1231	10-Q	20090630	2009	Q2	20090804	2009-08-04 09:56:00.0	0	0	wec-20090630.xml	1	
0000918160-09-000029	918160	AK STEEL HOLDING CORP	3312	US	OH	WEST CHESTER	45069	9227 CENTRE POINTE DRIVE		5134255000	US	OH	WEST CHESTER	45069	9227 CENTRE POINTE DRIVE		US	DE	311401455			1-LAF	1	1231	10-Q	20090630	2009	Q2	20090804	2009-08-04 11:57:00.0	1	0	aks-20090630.xml	1	
0000950123-09-029190	1099219	METLIFE INC	6311	US	NY	NEW YORK	10036	1095 AVENUE OF AMERICAS		212-578-5500	US	NY	NEW YORK	10036	1095 AVENUE OF AMERICAS		US	DE	134075851			1-LAF	1	1231	10-Q	20090630	2009	Q2	20090804	2009-08-04 06:16:00.0	0	0	met-20090630.xml	1	
0000950123-09-029196	899881	PROLOGIS	6798	US	CO	DENVER	80239	4545 AIRPORT WAY		3033759292	US	CO	DENVER	80239	4545 AIRPORT WAY		US	MD	742604728	PROLOGIS TRUST	19980717	1-LAF	1	1231	10-Q	20090630	2009	Q2	20090804	2009-08-04 06:26:00.0	0	0	pld-20090630.xml	1	
0000950123-09-029288	889900	PATTERSON UTI ENERGY INC	1381	US	TX	SNYDER	79549	4510 LAMESA HWY	P O DRAWER 1416	9155731104	US	TX	SNYDER	79550	P O DRAWER 1416		US	DE	752504748	PATTERSON ENERGY INC	19940228	1-LAF	1	1231	10-Q	20090630	2009	Q2	20090804	2009-08-04 10:01:00.0	0	0	pten-20090630.xml	1	
0000950123-09-029309	1024478	ROCKWELL AUTOMATION INC	3829	US	WI	MILWAUKEE	53204	1201 SOUTH 2ND STREET		414-382-2000	US	WI	MILWAUKEE	53204	1201 SOUTH 2ND STREET		US	DE	251797617	ROCKWELL  AUTOMATION INC	20020507	1-LAF	1	0930	10-Q	20090630	2009	Q3	20090804	2009-08-04 10:40:00.0	0	0	rok-20090630.xml	1	
0000950123-09-029387	1022646	ULTRA PETROLEUM CORP	1311	US	TX	HOUSTON	77060	363 N SAM HOUSTON PARKWAY E	SUITE 1200	2818760120	US	TX	HOUSTON	77060	363 N SAM HOUSTON PARKWAY 3	SUITE 1200			000000000			1-LAF	1	1231	10-Q	20090630	2009	Q2	20090804	2009-08-04 12:44:00.0	0	0	upl-20090630.xml	1	
0000950123-09-029455	866374	FLEXTRONICS INTERNATIONAL LTD.	3672	SG		SINGAPORE	018989	ONE MARINA BOULEVARD, #28-00		(65) 6890 7188	SG		SINGAPORE	018989	ONE MARINA BOULEVARD, #28-00		SG		000000000	FLEXTRONICS INTERNATIONAL LTD	19940318	1-LAF	1	0331	10-Q	20090630	2009	Q1	20090804	2009-08-04 14:15:00.0	0	0	flex-20090703.xml	1	
0000950123-09-029495	1056239	L 3 COMMUNICATIONS HOLDINGS INC	3663	US	NY	NEW YORK	10016	600 THIRD AVENUE	34TH FLOOR	2126971111	US	NY	NEW YORK	10016	600 THIRD AVENUE	34TH FLOOR	US	DE	133937434			1-LAF	1	1231	10-Q	20090630	2009	Q2	20090804	2009-08-04 14:56:00.0	0	0	lll-20090626.xml	2	1039101
0000950123-09-029565	13610	BOWNE & CO INC	2750	US	NY	NEW YORK	10041-0006	55 WATER STREET		2129245500	US	NY	NEW YORK	10041-0006	55 WATER STREET		US	DE	132618477			2-ACC	0	1231	10-Q	20090630	2009	Q2	20090804	2009-08-04 16:14:00.0	0	0	bne-20090630.xml	1	
0000950123-09-029613	1437107	DISCOVERY COMMUNICATIONS, INC.	4841	US	CO	ENGLEWOOD	80112	12300 LIBERTY BOULEVARD		(720) 875-4000	US	CO	ENGLEWOOD	80112	12300 LIBERTY BOULEVARD		US	DE	352333914			1-LAF	1	1231	10-Q	20090630	2009	Q2	20090804	2009-08-04 16:42:00.0	0	0	disca-20090630.xml	1	
0000950123-09-029672	200406	JOHNSON & JOHNSON	2834	US	NJ	NEW BRUNSWICK	08933	ONE JOHNSON & JOHNSON PLZ		732-524-2455	US	NJ	NEW BRUNSWICK	08933	ONE JOHNSON & JOHNSON PLZ		US	NJ	221024240			1-LAF	1	1231	10-Q	20090630	2009	Q2	20090804	2009-08-04 17:12:00.0	0	0	jnj-20090628.xml	1	
0000950123-09-029675	31277	EATON CORP	3590	US	OH	CLEVELAND	44114-2584	EATON CTR	1111 SUPERIOR AVE	2165235000	US	OH	CLEVELAND	44114	1111 SUPERIOR AVENUE		US	OH	340196300	EATON YALE & TOWNE INC	19710822	1-LAF	1	1231	10-Q	20090630	2009	Q2	20090804	2009-08-04 17:13:00.0	0	0	etn-20090630.xml	1	
0000950123-09-029713	1163165	CONOCOPHILLIPS	2911	US	TX	HOUSTON	77079	CONOCOPHILLIPS	600 NORTH DAIRY ASHFORD ROAD	2812931000	US	TX	HOUSTON	77079	CONOCOPHILLIPS	600 NORTH DAIRY ASHFORD ROAD	US	DE	010562944	CORVETTEPORSCHE CORP	20011204	1-LAF	1	1231	10-Q	20090630	2009	Q2	20090804	2009-08-04 17:31:00.0	0	0	cop-20090630.xml	1	
0001047469-09-007134	24545	MOLSON COORS BREWING CO	2082	US	CO	GOLDEN	80401	P.O. BOX 4030, MAIL #NH375		3032773271	US	CO	GOLDEN	80401	311 10TH STREET		US	CO	840178360	COORS ADOLPH CO	19920703	1-LAF	1	1231	10-Q	20090630	2009	Q2	20090804	2009-08-03 17:38:00.0	0	0	tap-20090628.xml	1	
0001104659-09-046716	765880	HCP, INC.	6798	US	CA	LONG BEACH	90806	3760 KILROY AIRPORT WAY	SUITE 300	562-733-5100	US	CA	LONG BEACH	90806	3760 KILROY AIRPORT WAY	SUITE 300	US	MD	330091377	HEALTH CARE PROPERTY INVESTORS INC	19920703	1-LAF	1	1231	10-Q	20090630	2009	Q2	20090804	2009-08-04 08:09:00.0	0	0	hcp-20090630.xml	1	
0001104659-09-046901	1023131	COVANCE INC	8731	US	NJ	PRINCETON	08540	210 CARNEGIE CENTER		6094524440	US	NJ	PRINCETON	08540	COVANCE INC	210 CARNEGIE CENTER	US	DE	223265977	CORNING PHARMACEUTICAL SERVICES INC	19960917	1-LAF	1	1231	10-Q	20090630	2009	Q2	20090804	2009-08-04 16:04:00.0	0	0	cvd-20090630.xml	1	
0001104659-09-046982	901491	PAPA JOHNS INTERNATIONAL INC	5812	US	KY	LOUISVILLE	40299-2334	2002 PAPA JOHNS BOULEVARD		5022617272	US	KY	LOUISVILLE	40269-9990	P O BOX 99900		US	DE	611203323			1-LAF	1	1231	10-Q	20090630	2009	Q2	20090804	2009-08-04 17:15:00.0	0	0	pzza-20090628.xml	1	
0001193125-09-163299	773910	ANADARKO PETROLEUM CORP	1311	US	TX	THE WOODLANDS	77380-1046	1201 LAKE ROBBINS DRIVE		8326367520	US	TX	THE WOODLANDS	77380	1201 LAKE ROBBINS DR.		US	DE	760146568			1-LAF	1	1231	10-Q	20090630	2009	Q2	20090804	2009-08-04 11:05:00.0	0	0	apc-20090630.xml	1	
0001193125-09-163472	764180	ALTRIA GROUP, INC.	2111	US	VA	RICHMOND	23230	6601 WEST BROAD STREET		(804) 274-2200	US	VA	RICHMOND	23230	6601 WEST BROAD STREET		US	VA	133260245	ALTRIA GROUP INC	20030127	1-LAF	1	1231	10-Q/A	20090630	2009	Q2	20090804	2009-08-04 12:56:00.0	0	0	mo-20090630.xml	1	
0001193125-09-163543	1047862	CONSOLIDATED EDISON INC	4931	US	NY	NEW YORK	10003	4 IRVING PLACE	ROOM 1618 S	2124604600	US	NY	NEW YORK	10003	4 IRVING PLACE	ROOM 1618 S	US	NY	133965100			1-LAF	0	1231	10-Q	20090630	2009	Q2	20090804	2009-08-04 13:44:00.0	0	0	ed-20090630.xml	2	23632
0001193125-09-163726	101830	SPRINT NEXTEL CORP	4813	US	KS	OVERLAND PARK	66251	6200 SPRINT PARKWAY		800-829-0965	US	KS	OVERLAND PARK	66251	6200 SPRINT PARKWAY		US	KS	480457967	SPRINT CORP	19921222	1-LAF	1	1231	10-Q	20090630	2009	Q2	20090804	2009-08-04 15:56:00.0	0	0	s-20090630.xml	1	
0001193125-09-163743	1059324	PETROHAWK ENERGY CORP	1311	US	TX	HOUSTON	77002	1000 LOUISIANA SUITE 5600		8322042700	US	TX	HOUSTON	77002	1000 LOUISIANA SUITE 5600		US	DE	860876964	BETA OIL & GAS INC	19980407	1-LAF	1	1231	10-Q	20090630	2009	Q2	20090804	2009-08-04 16:05:00.0	0	0	hk-20090630.xml	1	
0001193125-09-163762	40533	GENERAL DYNAMICS CORP	3730	US	VA	FALLS CHURCH	22042-4513	2941 FAIRVIEW PARK DRIVE	SUITE 100	7038763000	US	VA	FALLS CHURCH	22042-4513	2941 FAIRVIEW PARK DRIVE	SUITE 100	US	DE	131673581			1-LAF	1	1231	10-Q	20090630	2009	Q2	20090804	2009-08-04 16:13:00.0	0	0	gd-20090705.xml	1	
0001193125-09-163822	1365135	WESTERN UNION CO	7389	US	CO	ENGLEWOOD	80112	12500 EAST BELFORD AVENUE		(720) 332-3361	US	CO	ENGLEWOOD	80112	12500 EAST BELFORD AVENUE		US	DE	204531180			1-LAF	1	1231	10-Q	20090630	2009	Q2	20090804	2009-08-04 16:42:00.0	0	0	wu-20090630.xml	1	
0001193125-09-163845	1288776	GOOGLE INC.	7370	US	CA	MOUNTAIN VIEW	94043	1600 AMPHITHEATRE PARKWAY		650 623 4000	US	CA	MOUNTAIN VIEW	94043	1600 AMPHITHEATRE PARKWAY		US	DE	770493581			1-LAF	1	1231	10-Q	20090630	2009	Q2	20090804	2009-08-04 16:51:00.0	0	0	goog-20090630.xml	1	
0001193125-09-163865	64803	CVS CAREMARK CORP	5912	US	RI	WOONSOCKET	02895	ONE CVS DR.		4017651500	US	RI	WOONSOCKET	02895	ONE CVS DR.		US	DE	050494040	CVS/CAREMARK CORP	20070322	1-LAF	1	1231	10-Q	20090630	2009	Q2	20090804	2009-08-04 17:02:00.0	0	0	cvs-20090630.xml	1	
0001193125-09-163901	1316631	LIBERTY GLOBAL, INC.	4841	US	CO	ENGLEWOOD	80112	12300 LIBERTY BOULEVARD		720 875 5800	US	CO	ENGLEWOOD	80112	12300 LIBERTY BOULEVARD				202197030			1-LAF	1	1231	10-Q	20090630	2009	Q2	20090804	2009-08-04 17:15:00.0	0	0	lbtya-20090630.xml	1	
0000704051-09-000121	704051	LEGG MASON INC	6282	US	MD	BALTIMORE	21202-1476	100 LIGHT ST		4105390000	US	MD	BALTIMORE	21202-1476	100 LIGHT ST		US	MD	521200960			1-LAF	1	0331	10-Q	20090630	2009	Q1	20090805	2009-08-05 15:30:00.0	0	0	lm-20090630.xml	1	
0000732717-09-000050	732717	AT&T INC.	4813	US	TX	DALLAS	75202	208 S. AKARD ST	ATTN :  ANDREW LIBERA	2108214105	US	TX	DALLAS	75202	208 S. AKARD ST	ATTN :  ANDREW LIBERA	US	DE	431301883	SBC COMMUNICATIONS INC	19950501	1-LAF	1	1231	10-Q	20090630	2009	Q2	20090805	2009-08-05 16:40:00.0	0	0	t-20090630.xml	1	
0000930413-09-004048	78814	PITNEY BOWES INC /DE/	3579	US	CT	STAMFORD	06926-0700	PITNEY BOWES INC	1 ELMCROFT ROAD	2033565000	US	CT	STAMFORD	06926-0700	1 ELMCROFT ROAD		US	DE	060495050			1-LAF	1	1231	10-Q	20090630	2009	Q2	20090805	2009-08-05 16:45:00.0	0	0	pbi-20090630.xml	1	
0000950123-09-029843	829224	STARBUCKS CORP	5810	US	WA	SEATTLE	98124-1067	P O BOX 34067		2064471575	US	WA	SEATTLE	98134	2401 UTAH AVENUE SOUTH		US	WA	911325671			1-LAF	1	0930	10-Q	20090630	2009	Q3	20090805	2009-08-04 21:39:00.0	0	0	sbux-20090628.xml	1	
0000950123-09-029919	886982	GOLDMAN SACHS GROUP INC	6211	US	NY	NEW YORK	10004	85 BROAD ST		2129021000	US	NY	NEW YORK	10004	85 BROAD ST		US	DE	134019460	GOLDMAN SACHS GROUP INC/	20010104	1-LAF	1	1231	10-Q	20090630	2009	Q2	20090805	2009-08-05 06:10:00.0	0	0	gs-20090626.xml	1	
0000950123-09-029921	1333141	FRESENIUS MEDICAL CARE AG & CO. KGAA	8090	DE		BAD HOMBURG	61352	ELSE-KROENER STRASSE 1		011-49-6172-6090	DE		BAD HOMBURG	61352	ELSE-KROENER STRASSE 1				000000000			1-LAF	1	1231	6-K	20090630	2009	Q2	20090805	2009-08-05 06:12:00.0	0	0	fms-20090630.xml	1	
0000950123-09-030200	1130385	FOSTER WHEELER AG	1600	US	NJ	CLINTON	08809	PERRYVILLE CORPORATE PARK	SERVICE ROAD EAST 173	9087304270	US	NJ	CLINTON	08809	PERRYVILLE CORPORATE PARK	SERVICE ROAD EAST 173	BM		223802649	FOSTER WHEELER LTD	20001221	1-LAF	1	1231	10-Q	20090630	2009	Q2	20090805	2009-08-05 14:27:00.0	0	0	fwlt-20090630.xml	1	
0000950123-09-030284	1174746	INTERCONTINENTALEXCHANGE INC	6200	US	GA	ATLANTA	30328	2100 RIVEREDGE PARKWAY	SUITE 500	7708574700	US	GA	ATLANTA	30328	2100 RIVEREDGE PARKWAY	SUITE 500			000000000			1-LAF	1	1231	10-Q/A	20090630	2009	Q2	20090805	2009-08-05 16:13:00.0	0	0	ice-20090630.xml	1	
0000950123-09-030335	849399	SYMANTEC CORP	7372	US	CA	CUPERTINO	95014	20330 STEVENS CREEK BLVD		4082539600	US	CA	CUPERTINO	95014	20330 STEVENS CREEK BLVD		US	DE	770181864			1-LAF	1	0331	10-Q	20090630	2009	Q1	20090805	2009-08-05 16:37:00.0	0	0	symc-20090703.xml	1	
0000950123-09-030360	1032033	SLM CORP	6141	US	VA	RESTON	20190	12061 BLUEMONT WAY		7038103000	US	VA	RESTON	20190	12061 BLUEMONT WAY		US	DE	522013874	SALLIE MAE	20020517	1-LAF	1	1231	10-Q	20090630	2009	Q2	20090805	2009-08-05 16:57:00.0	0	0	slm-20090630.xml	1	
0000950123-09-030370	1396009	VULCAN MATERIALS CO	1400	US	AL	BIRMINGHAM	35242	1200 URBAN CENTER DRIVE		(205) 298-3000	US	AL	BIRMINGHAM	35242	1200 URBAN CENTER DRIVE		US	NJ	208579133	VIRGINIA HOLDCO, INC.	20070409	1-LAF	1	1231	10-Q	20090630	2009	Q2	20090805	2009-08-05 17:02:00.0	0	0	vmc-20090630.xml	1	
0000950123-09-030389	1037016	NII HOLDINGS INC	4812	US	VA	RESTON	20191	10700 PARKRIDGE BLVD	SUITE 600	7034334000	US	VA	RESTON	20191	10700 PARKRIDGE BLVD	SUITE 600	US	DE	911671412	NEXTEL INTERNATIONAL INC	19970919	1-LAF	1	1231	10-Q	20090630	2009	Q2	20090805	2009-08-05 17:10:00.0	0	0	nihd-20090630.xml	1	
0000950123-09-030415	1037868	AMETEK INC/	3621	US	PA	PAOLI	19301	37 NORTH VALLEY RD.	BUILDING 4, POB 1764	6106472121	US	PA	PAOLI	19301	37 NORTH VALLEY RD.	BUILDING 4, POB 1764	US	DE	141682544	AMETEK AEROSPACE PRODUCTS INC	19970415	1-LAF	1	1231	10-Q	20090630	2009	Q2	20090805	2009-08-05 17:23:00.0	0	0	ame-20090630.xml	1	
0000950123-09-030426	1136893	FIDELITY NATIONAL INFORMATION SERVICES, INC.	7389	US	FL	JACKSONVILLE	32204	601 RIVERSIDE AVENUE		904-854-8547	US	FL	JACKSONVILLE	32204	601 RIVERSIDE AVENUE				371490331	CERTEGY INC	20010607	1-LAF	1	1231	10-Q	20090630	2009	Q2	20090805	2009-08-05 17:25:00.0	0	0	fis-20090630.xml	1	
0001004980-09-000057	1004980	PG&E CORP	4931	US	CA	SAN FRANCISCO	94105	ONE MARKET SPEAR TOWER	SUITE 2400	4152677000	US	CA	SAN FRANCISCO	94105	ONE MARKET SPEAR TOWER	SUITE 2400	US	CA	943234914	PG&E PARENT CO INC	19951214	1-LAF	1	1231	10-Q	20090630	2009	Q2	20090805	2009-08-05 14:21:00.0	0	0	pge-20090630.xml	1	
0001104659-09-046999	820027	AMERIPRISE FINANCIAL INC	6282	US	MN	MINNEAPOLIS	55474	1099 AMERIPRISE FINANCIAL CENTER		612-671-2018	US	MN	MINNEAPOLIS	55474	1099 AMERIPRISE FINANCIAL CENTER		US	DE	133180631	AMERICAN EXPRESS FINANCIAL CORP	20030513	1-LAF	1	1231	10-Q	20090630	2009	Q2	20090805	2009-08-04 17:41:00.0	0	0	amp-20090630.xml	1	
0001104659-09-047200	46765	HELMERICH & PAYNE INC	1381	US	OK	TULSA	74114	UTICA AT 21ST ST		9187425531	US	OK	TULSA	74114	UTICA AT 21ST ST		US	DE	730679879			1-LAF	1	0930	10-Q	20090630	2009	Q3	20090805	2009-08-05 11:37:00.0	0	0	hp-20090630.xml	1	
0001104659-09-047214	1324404	CF INDUSTRIES HOLDINGS, INC.	2870	US	IL	DEERFIELD	60015	4 PARKWAY NORTH	SUITE 400	(847) 405-2400	US	IL	DEERFIELD	60015	4 PARKWAY NORTH	SUITE 400	US	DE	202697511			1-LAF	1	1231	10-Q/A	20090630	2009	Q2	20090805	2009-08-05 12:05:00.0	0	0	cf-20090630.xml	1	
0001104659-09-047320	86312	TRAVELERS COMPANIES, INC.	6331	US	MN	SAINT PAUL	55102	385 WASHINGTON ST		6513107911	US	MN	ST. PAUL	55102	385 WASHINGTON STREET		US	MN	410518860	ST PAUL TRAVELERS COMPANIES INC	20040401	1-LAF	1	1231	10-Q/A	20090630	2009	Q2	20090805	2009-08-05 15:31:00.0	0	0	trv_20090630.xml	1	
0001104659-09-047410	1126328	PRINCIPAL FINANCIAL GROUP INC	6321	US	IA	DES MOINES	50392-0300	711 HIGH STREET		5152475111	US	IA	DES MOINES	50392-0300	711 HIGH STREET		US	DE	421520346			1-LAF	1	1231	10-Q	20090630	2009	Q2	20090805	2009-08-05 17:04:00.0	0	0	pfg-20090630.xml	1	
0001130310-09-000035	1130310	CENTERPOINT ENERGY INC	4911	US	TX	HOUSTON	77002	1111 LOUISIANA ST.		7132073000	US	TX	HOUSTON	77002	1111 LOUISIANA ST.				740694415	RELIANT ENERGY REGCO INC	20001220	1-LAF	1	1231	10-Q	20090630	2009	Q2	20090805	2009-08-05 08:01:00.0	0	0	cnp-20090630.xml	1	
0001140361-09-017883	833081	PRIDE INTERNATIONAL INC	1381	US	TX	HOUSTON	77057	5847 SAN FELIPE	SUITE 3300	7137891400	US	TX	HOUSTON	77057	5847 SAN FELIPE	SUITE 3300	US	DE	760069030	PRIDE PETROLEUM SERVICES INC	19920703	1-LAF	1	1231	10-Q/A	20090630	2009	Q2	20090805	2009-08-04 19:52:00.0	0	0	pde-20090630.xml	1	
0001140361-09-017928	37996	FORD MOTOR CO	3711	US	MI	DEARBORN	48126	ONE AMERICAN ROAD		3133223000	US	MI	DEARBORN	48126	ONE AMERICAN RD		US	DE	380549190			1-LAF	1	1231	10-Q	20090630	2009	Q2	20090805	2009-08-05 12:01:00.0	0	0	f-20090630.xml	1	
0001144204-09-040507	32604	EMERSON ELECTRIC CO	3600	US	MO	ST LOUIS	63136	8000 W FLORISSANT AVE	P O BOX 4100	3145532000	US	MO	ST LOUIS	63136	8000 W. FLORISSANT	P.O. BOX 4100	US	MO	430259330	EMERSON ELECTRIC MANUFACTUING CO	19730710	1-LAF	1	0930	10-Q	20090630	2009	Q3	20090805	2009-08-05 13:27:00.0	0	0	emr-20090630.xml	1	
0001193125-09-164943	1103982	KRAFT FOODS INC	2000	US	IL	NORTHFIELD	60093	THREE LAKES DRIVE		8476462000	US	IL	NORTHFIELD	60093	THREE LAKES DRIVE		US	VA	522284372			1-LAF	1	1231	10-Q	20090630	2009	Q2	20090805	2009-08-05 11:44:00.0	0	0	kft-20090630.xml	1	
0001193125-09-165131	835729	BMC SOFTWARE INC	7372	US	TX	HOUSTON	77042-2827	2101 CITYWEST BLVD		7139188800	US	TX	HOUSTON	77042-2827	2101 CITYWEST BLVD		US	DE	742126120			1-LAF	1	0331	10-Q	20090630	2009	Q1	20090805	2009-08-05 14:02:00.0	0	0	bmc-20090630.xml	1	
0001193125-09-165196	34088	EXXON MOBIL CORP	2911	US	TX	IRVING	75039-2298	5959 LAS COLINAS BLVD		9724441000	US	TX	IRVING	75039-2298	5959 LAS COLINAS BLVD		US	NJ	135409005	EXXON CORP	19920703	1-LAF	1	1231	10-Q	20090630	2009	Q2	20090805	2009-08-05 14:46:00.0	0	0	xom-20090630.xml	1	
0001193125-09-165283	49938	IMPERIAL OIL LTD	2911	CA	AB	CALGARY	T2P 3M9	237 FOURTH AVENUE S.W.		1-800-567-3776	CA	AB	CALGARY	T2P 3M9	237 FOURTH AVENUE S.W.				980017682			1-LAF	1	1231	10-Q/A	20090630	2009	Q2	20090805	2009-08-05 15:27:00.0	0	0	imo-20090630.xml	1	
0001193125-09-165368	945436	MEMC ELECTRONIC MATERIALS INC	3674	US	MO	ST. PETERS	63376	501 PEARL DRIVE	P. O. BOX 8	6364745000	US	MO	ST. PETERS	63376	501 PEARL DRIVE	P. O. BOX 8	US	DE	561505767			1-LAF	1	1231	10-Q	20090630	2009	Q2	20090805	2009-08-05 16:05:00.0	0	0	wfr-20090630.xml	1	
0001193125-09-165373	5513	UNUM GROUP	6321	US	TN	CHATTANOOGA	37402	1 FOUNTAIN SQUARE		4232944350	US	TN	CHATTANOOGA	37402	1 FOUNTAIN SQUARE		US	DE	621598430	UNUMPROVIDENT CORP	19990702	1-LAF	1	1231	10-Q	20090630	2009	Q2	20090805	2009-08-05 16:07:00.0	0	0	unm-20090630.xml	1	
0001193125-09-165391	790070	EMC CORP	3572	US	MA	HOPKINTON	01748-9103	176 SOUTH STREET		5082937208	US	MA	HOPKINTON	01748-9103	176 SOUTH STREET		US	MA	042680009			1-LAF	1	1231	10-Q	20090630	2009	Q2	20090805	2009-08-05 16:10:00.0	0	0	emc-20090630.xml	1	
0001193125-09-165435	37785	FMC CORP	2800	US	PA	PHILADELPHIA	19103	1735 MARKET STREET		215 299-6000	US	PA	PHILADELPHIA	19103	1735 MARKET STREET		US	DE	940479804	FOOD MACHINERY & CHEMICAL CORP	19670706	1-LAF	1	1231	10-Q	20090630	2009	Q2	20090805	2009-08-05 16:21:00.0	0	0	fmc-20090630.xml	1	
0001193125-09-165464	740260	VENTAS INC	6798	US	IL	CHICAGO	60606	111 SOUTH WACKER DRIVE	SUITE 4800	(877) 483-6827	US	IL	CHICAGO	60606	111 SOUTH WACKER DRIVE	SUITE 4800	US	DE	611055020			1-LAF	1	1231	10-Q	20090630	2009	Q2	20090805	2009-08-05 16:32:00.0	0	0	vtr-20090630.xml	1	
0001193125-09-165473	849213	PLUM CREEK TIMBER CO INC	6798	US	WA	SEATTLE	98104-4040	999 THIRD AVENUE	SUITE 4300	(206)467-3600	US	WA	SEATTLE	98104-4040	999 THIRD AVENUE	SUITE 4300	US	DE	911912863	PLUM CREEK TIMBER CO L P	19920703	1-LAF	0	1231	10-Q	20090630	2009	Q2	20090805	2009-08-05 16:36:00.0	0	0	pcl-20090630.xml	1	
0001193125-09-165497	29669	RR DONNELLEY & SONS CO	2750	US	IL	CHICAGO	60606	111 SOUTH WACKER DRIVE		3123268000	US	IL	CHICAGO	60606	111 SOUTH WACKER DRIVE		US	DE	361004130	DONNELLEY R R & SONS CO	19920703	1-LAF	1	1231	10-Q	20090630	2009	Q2	20090805	2009-08-05 16:43:00.0	0	0	rrd-20090630.xml	1	
0001193125-09-165503	1281761	REGIONS FINANCIAL CORP	6021	US	AL	BIRMINGHAM	35203	1900 FIFTH AVENUE NORTH		205-944-1300	US	AL	BIRMINGHAM	35203	1900 FIFTH AVENUE NORTH		US	DE	630589368	NEW REGIONS FINANCIAL CORP	20040225	1-LAF	1	1231	10-Q	20090630	2009	Q2	20090805	2009-08-05 16:44:00.0	0	0	rf-20090630.xml	1	
0001193125-09-165506	882095	GILEAD SCIENCES INC	2836	US	CA	FOSTER CITY	94404	333 LAKESIDE DR		6505743000	US	CA	FOSTER CITY	94404	333 LAKESIDE DR		US	DE	943047598			1-LAF	1	1231	10-Q	20090630	2009	Q2	20090805	2009-08-05 16:45:00.0	0	0	gild-20090630.xml	1	
0000060086-09-000039	60086	LOEWS CORP	6331	US	NY	NEW YORK	10065-8087	667 MADISON AVE		212-521-2000	US	NY	NEW YORK	10065-8087	667 MADISON AVE		US	DE	132646102			1-LAF	1	1231	10-Q/A	20090630	2009	Q2	20090806	2009-08-06 15:37:00.0	0	0	l-20090630.xml	1	
0000797468-09-000095	797468	OCCIDENTAL PETROLEUM CORP /DE/	1311	US	CA	LOS ANGELES	90024	10889 WILSHIRE BLVD		3102088800	US	CA	LOS ANGELES	90024	10889 WILSHIRE BOULEVARD		US	DE	954035997			1-LAF	1	1231	10-Q	20090630	2009	Q2	20090806	2009-08-06 13:32:00.0	0	0	oxy-20090630.xml	1	
0000821189-09-000047	821189	EOG RESOURCES INC	1311	US	TX	HOUSTON	77002	1111 BAGBY, SKY LOBBY 2		7136517000	US	TX	HOUSTON	77002	1111 BAGBY, SKY LOBBY 2		US	DE	470684736	ENRON OIL & GAS CO	19920703	1-LAF	1	1231	10-Q	20090630	2009	Q2	20090806	2009-08-06 17:09:00.0	0	0	eog-20090630.xml	1	
0000891092-09-003150	29989	OMNICOM GROUP INC	7311	US	NY	NEW YORK	10022	437 MADISON AVE		2124153700	US	NY	NEW YORK	10022	437 MADISON AVE		US	NY	131514814	DOYLE DANE BERNBACH GROUP INC	19861117	1-LAF	1	1231	10-Q	20090630	2009	Q2	20090806	2009-08-06 16:07:00.0	0	0	omc-20090630.xml	1	
0000909281-09-000056	909281	ONEOK PARTNERS LP	4922	US	OK	TULSA	74103	100 WEST FIFTH STREET		9185887000	US	OK	TULSA	74103	100 WEST FIFTH STREET		US	DE	931120873	NORTHERN BORDER PARTNERS LP	19930719	1-LAF	1	1231	10-Q	20090630	2009	Q2	20090806	2009-08-06 13:54:00.0	0	0	oks-20090630.xml	1	
0000941548-09-000106	941548	CAMERON INTERNATIONAL CORP	3533	US	TX	HOUSTON	77027	1333 WEST LOOP SOUTH	STE 1700	7135133322	US	TX	HOUSTON	77027	1333 WEST LOOP SOUTH	STE 1700	US	DE	760451843	COOPER CAMERON CORP	19950315	1-LAF	1	1231	10-Q	20090630	2009	Q2	20090806	2009-08-06 16:09:00.0	0	0	cam-20090630.xml	1	
0000950123-09-030790	1140859	AMERISOURCEBERGEN CORP	5122	US	PA	CHESTERBROOK	19087-5594	1300 MORRIS DRIVE		6107277000	US	PA	CHESTERBROOK	19087-5594	1300 MORRIS DRIVE		US	DE	233079390			1-LAF	1	0930	10-Q	20090630	2009	Q3	20090806	2009-08-06 10:14:00.0	0	0	abc-20090630.xml	1	
0000950123-09-030860	93410	CHEVRON CORP	2911	US	CA	SAN RAMON	94583	6001 BOLLINGER CANYON ROAD		925-842-1000	US	CA	SAN RAMON	94583	6001 BOLLINGER CANYON ROAD		US	DE	940890210	CHEVRONTEXACO CORP	20011009	1-LAF	1	1231	10-Q	20090630	2009	Q2	20090806	2009-08-06 11:28:00.0	0	0	cvx-20090630.xml	1	
0000950123-09-030883	808362	BAKER HUGHES INC	3533	US	TX	HOUSTON	77019-2118	2929 ALLEN PARKWAY	SUITE 2100	7134398600	US	TX	HOUSTON	77210-4740	PO BOX 4740		US	DE	760207995			1-LAF	0	1231	10-Q	20090630	2009	Q2	20090806	2009-08-06 11:55:00.0	0	0	bhi-20090630.xml	1	
0000950123-09-030911	1141982	COOPER INDUSTRIES LTD	3640	US	TX	HOUSTON	77002-1001	600 TRAVIS	SUITE 5600	7132098400	US	TX	HOUSTON	77002-1001	600 TRAVIS	SUITE 5600			980355628			1-LAF	1	1231	10-Q	20090630	2009	Q2	20090806	2009-08-06 12:21:00.0	0	0	cbe-20090630.xml	1	
0000950123-09-030946	1090012	DEVON ENERGY CORP/DE	1311	US	OK	OKLAHOMA CITY	73102	20 N BROADWAY	STE 1500	4052353611	US	OK	OKLAHOMA CITY	73102	20 N BROADWAY	STE 1500	US	DE	731567067	DEVON DELAWARE CORP	19990707	1-LAF	1	1231	10-Q	20090630	2009	Q2	20090806	2009-08-06 12:55:00.0	0	0	dvn-20090630.xml	1	
0000950123-09-031054	40987	GENUINE PARTS CO	5013	US	GA	ATLANTA	30339	2999 CIRCLE 75 PARKWAY		4049531700	US	GA	ATLANTA	30339	2999 CIRCLE 75 PARKWAY		US	GA	580254510			1-LAF	1	1231	10-Q	20090630	2009	Q2	20090806	2009-08-06 14:35:00.0	0	0	gpc-20090630.xml	1	
0000950123-09-031164	1086195	ART TECHNOLOGY GROUP INC	7372	US	MA	CAMBRIDGE	02142	ONE MAIN STREET		617-386-1000	US	MA	CAMBRIDGE	02142	ONE MAIN STREET		US	DE	043141918			2-ACC	0	1231	10-Q	20090630	2009	Q2	20090806	2009-08-06 16:11:00.0	0	0	artg-20090630.xml	1	
0000950123-09-031199	316206	STARWOOD HOTEL & RESORTS WORLDWIDE INC	7011	US	NY	WHITE PLAINS	10604	1111 WESTCHESTER AVENUE		9146408100	US	AZ	PHOENIX	85016	2231 E CAMELBACK RD. 4TH FL	SUITE 4O0	US	MD	521193298	STARWOOD LODGING CORP	19950215	1-LAF	1	1231	10-Q	20090630	2009	Q2	20090806	2009-08-06 16:23:00.0	0	0	hot-20090630.xml	1	
0000950123-09-031224	1349436	SANDRIDGE ENERGY INC	1311	US	OK	OKLAHOMA CITY	73102-6406	123 ROBERT S. KERR AVENUE		405-429-5500	US	OK	OKLAHOMA CITY	73102-6406	123 ROBERT S. KERR AVENUE		US	DE	208084793	RIATA ENERGY INC	20060111	1-LAF	0	1231	10-Q	20090630	2009	Q2	20090806	2009-08-06 16:35:00.0	0	0	sd-20090630.xml	1	
0000950123-09-031281	885725	BOSTON SCIENTIFIC CORP	3841	US	MA	NATICK	01760-1537	ONE BOSTON SCIENTIFIC PL		5086508000							US	DE	042695240			1-LAF	1	1231	10-Q	20090630	2009	Q2	20090806	2009-08-06 16:56:00.0	0	0	bsx-20090630.xml	1	
0000950123-09-031364	310522	FEDERAL NATIONAL MORTGAGE ASSOCIATION FANNIE MAE	6111	US	DC	WASHINGTON	20016	3900 WISCONSIN AVE N.W.		202-752-7000	US	DC	WASHINGTON	20016	3900 WISCONSIN AVE N.W.				520883107	FEDERAL NATIONAL MORTGAGE ASSOCIATION	19950110	1-LAF	1	1231	10-Q	20090630	2009	Q2	20090806	2009-08-06 17:29:00.0	0	0	fnm-20090630.xml	1	
0001039684-09-000053	1039684	ONEOK INC /NEW/	4923	US	OK	TULSA	74103	100 WEST 5TH ST		9185887000	US	OK	TULSA	74103	100 WEST 5TH ST		US	OK	731520922	WAI INC	19970519	1-LAF	1	1231	10-Q	20090630	2009	Q2	20090806	2009-08-06 13:55:00.0	0	0	oke-20090630.xml	1	
0001047469-09-007300	813828	CBS CORP	4833	US	NY	NEW YORK	10019	51 WEST 52ND STREET	35TH FLOOR	2129754321	US	NY	NEW YORK	10019	51 WEST 52ND STREET	35TH FLOOR	US	DE	042949533	VIACOM INC	19920703	1-LAF	1	1231	10-Q	20090630	2009	Q2	20090806	2009-08-06 16:21:00.0	0	0	cbs-20090630.xml	1	
0001061219-09-000078	1061219	ENTERPRISE PRODUCTS PARTNERS L P	4922	US	TX	HOUSTON	77002	1100 LOUISIANA 10TH FLOOR		7133816500	US	TX	HOUSTON	77002	1100 LOUISIANA 10TH FLOOR		US	DE	760568219			1-LAF	1	1231	10-Q	20090630	2009	Q2	20090806	2009-08-06 16:41:00.0	0	0	epd-20090630.xml	1	
0001104659-09-047605	820313	AMPHENOL CORP /DE/	3678	US	CT	WALLINGFORD	06492	358 HALL AVE		2032658900							US	DE	222785165			1-LAF	1	1231	10-Q	20090630	2009	Q2	20090806	2009-08-06 10:03:00.0	0	0	aph-20090630.xml	1	
0001145443-09-001878	879101	KIMCO REALTY CORP	6798	US	NY	NEW HYDE PARK	11042	3333 NEW HYDE PARK RD	PO BOX 5020	5168699000	US	NY	NEW HYDE PARKQ	11042	3333 NEW HYDE PARK ROAD	PO BOX 5020	US	MD	132744380			1-LAF	1	1231	10-Q	20090630	2009	Q2	20090806	2009-08-06 16:10:00.0	0	0	kim-20090630.xml	1	
0001157523-09-005715	1043219	ANNALY CAPITAL MANAGEMENT INC	6798	US	NY	NEW YORK	10036	1211 AVENUE OF THE AMERICAS		212 696 0100	US	NY	NEW YORK	10036	1211 AVENUE OF THE AMERICAS		US	MD	223479661	ANNALY MORTGAGE MANAGEMENT INC	19970729	1-LAF	1	1231	10-Q	20090630	2009	Q2	20090806	2009-08-06 10:44:00.0	0	0	nly-20090630.xml	1	
0001157523-09-005774	78003	PFIZER INC	2834	US	NY	NEW YORK	10017	235 E 42ND ST		2125732323	US	NY	NEW YORK	10017	235 E 42ND ST		US	DE	135315170	PFIZER CHARLES & CO INC	19710908	1-LAF	1	1231	10-Q	20090630	2009	Q2	20090806	2009-08-06 17:21:00.0	0	0	pfe-20090628.xml	1	
0001193125-09-165642	1267238	ASSURANT INC	6321	US	NY	NEW YORK					US	NY	NEW YORK	10005	ONE CHASE MANHATTAN PLAZA				391126612			1-LAF	1	1231	10-Q	20090630	2009	Q2	20090806	2009-08-05 17:56:00.0	0	0	aiz-20090630.xml	1	
0001193125-09-166495	81061	PUBLIX SUPER MARKETS INC	5411	US	FL	LAKELAND	33811	3300 PUBLIX CORPORATE PARKWAY		863-688-1188	US	FL	LAKELAND	33811	3300 PUBLIX CORPORATE PARKWAY		US	FL	590324412			1-LAF	1	1231	10-Q	20090630	2009	Q2	20090806	2009-08-06 09:17:00.0	0	0	cik000008106-20090627.xml	1	
0001193125-09-166658	63908	MCDONALDS CORP	5812	US	IL	OAK BROOK	60523	ONE MCDONALD'S PLZ	DEPT 332	6306233154	US	IL	OAK BROOK	60523	ONE MCDONALDS PLAZA	DEPT 332	US	DE	362361282			1-LAF	1	1231	10-Q	20090630	2009	Q2	20090806	2009-08-06 11:13:00.0	0	0	mcd-20090630.xml	1	
0001193125-09-166661	868809	XTO ENERGY INC	1311	US	TX	FORT WORTH	76102	810 HOUSTON ST	STE 2000	8178702800	US	TX	FORT WORTH	76102	810 HOUSTON STREET	STE 2000	US	DE	752347769	CROSS TIMBERS OIL CO	19940801	1-LAF	1	1231	10-Q	20090630	2009	Q2	20090806	2009-08-06 11:16:00.0	0	0	xto-20090630.xml	1	
0001193125-09-166759	1166691	COMCAST CORP	4841	US	PA	PHILADELPHIA					US	PA	PHILADELPHIA	19102	1500 MARKET STREET		US	PA	270000798	AT&T COMCAST CORP	20020206	1-LAF	1	1231	10-Q	20090630	2009	Q2	20090806	2009-08-06 12:18:00.0	0	0	cmcsa-20090630.xml	1	
0001193125-09-166917	1282266	WINDSTREAM CORP	4813	US	AR	LITTLE ROCK	72212	4001 RODNEY PARHAM RD.		5017487000	US	AR	LITTLE ROCK	72212	4001 RODNEY PARHAM RD.		US	DE	200792300	VALOR COMMUNICATIONS GROUP INC	20040326	1-LAF	1	1231	10-Q	20090630	2009	Q2	20090806	2009-08-06 14:02:00.0	0	0	win-20090630.xml	1	
0001193125-09-166920	859737	HOLOGIC INC	3844	US	MA	BEDFORD	01730	35 CROSBY DRIVE		7819997300	US	MA	BEDFORD	01730	35 CROSBY DRIVE		US	DE	042902449			1-LAF	1	0930	10-Q	20090630	2009	Q3	20090806	2009-08-06 14:03:00.0	0	0	holx-20090627.xml	1	
0001193125-09-166979	1466258	INGERSOLL-RAND PLC	3822	IE		CO. DUBLIN	00000	170/175 LAKEVIEW DRIVE	AIRSIDE BUSINESS PARK, SWORDS,	732-652-7000	US	NJ	PISCATAWAY	08855	C/O INGERSOLL-RAND COMPANY	ONE CENTENNIAL AVENUE	IE		000000000			1-LAF	1	1231	10-Q	20090630	2009	Q2	20090806	2009-08-06 14:40:00.0	0	0	ir-20090630.xml	1	
0001193125-09-167020	316709	SCHWAB CHARLES CORP	6211	US	CA	SAN FRANCISCO	94105	211 MAIN STREET		4156367000	US	CA	SAN FRANCISCO	94105	211 MAIN STREET		US	DE	943025021			1-LAF	1	1231	10-Q	20090630	2009	Q2	20090806	2009-08-06 14:57:00.0	0	0	schw-20090630.xml	1	
0001193125-09-167025	798354	FISERV INC	7374	US	WI	BROOKFIELD	53045	255 FISERV DR	PO BOX 979	4148795000	US	WI	BROOKFIELD	53045	255 FISERV DRIVE		US	WI	391506125			1-LAF	1	1231	10-Q	20090630	2009	Q2	20090806	2009-08-06 15:00:00.0	0	0	fisv-20090630.xml	1	
0001193125-09-167069	5187	WYETH	2834	US	NJ	MADISON	07940	5 GIRALDA FARMS		9736605000	US	NJ	MADISON	07940	5 GIRALDA FARMS		US	DE	132526821	AMERICAN HOME PRODUCTS CORP	20020308	1-LAF	1	1231	10-Q	20090630	2009	Q2	20090806	2009-08-06 15:30:00.0	0	0	wye-20090630.xml	1	
0001193125-09-167151	1135971	PEPCO HOLDINGS INC	4931	US	DC	WASHINGTON	20068	SUITE 1300	701 NINTH STREET, NW	202-872-2000	US	DC	WASHINGTON	20068	SUITE 1300	701 NINTH STREET, NW	US	DE	522297449	NEW RC INC	20010302	1-LAF	0	1231	10-Q	20090630	2009	Q2	20090806	2009-08-06 16:06:00.0	0	0	pom-20090630.xml	4	8192 79732 27879
0001193125-09-167155	1053507	AMERICAN TOWER CORP /MA/	4899	US	MA	BOSTON	02116	116 HUNTINGTON AVE		6173757500	US	MA	BOSTON	02116	116 HUNTINGTON AVE		US	DE	650723837	AMERICAN TOWER SYSTEMS CORP	19980128	1-LAF	1	1231	10-Q	20090630	2009	Q2	20090806	2009-08-06 16:06:00.0	0	0	amt-20090630.xml	1	
0001193125-09-167160	731766	UNITEDHEALTH GROUP INC	6324	US	MN	MINNEAPOLIS	55343	UNITEDHEALTH GROUP CENTER	9900 BREN ROAD EAST	9529361300	US	MN	MINNETONKA	55343	9900 BREN ROAD EAST		US	MN	411321939	UNITED HEALTHCARE CORP/	20000309	1-LAF	1	1231	10-Q	20090630	2009	Q2	20090806	2009-08-06 16:08:00.0	0	0	unh-20090630.xml	1	
0001193125-09-167264	1037540	BOSTON PROPERTIES INC	6798	US	MA	BOSTON	02199	800 BOYLSTON STREET	SUITE 1900	6172363300	US	MA	BOSTON	02199	800 BOYLSTON STREET	SUITE 1900	US	DE	042473675			1-LAF	1	1231	10-Q	20090630	2009	Q2	20090806	2009-08-06 16:39:00.0	0	0	bxp-20090630.xml	1	
0001193125-09-167271	906107	EQUITY RESIDENTIAL	6798	US	IL	CHICAGO	60606	EQUITY RESIDENTIAL	TWO NORTH RIVERSIDE PLAZA, SUITE 400	3129281178	US	IL	CHICAGO	60606	TWO NORTH RIVERSIDE PLAZA	SUITE 400	US	MD	363877868	EQUITY RESIDENTIAL PROPERTIES TRUST	19930524	1-LAF	1	1231	10-Q	20090630	2009	Q2	20090806	2009-08-06 16:42:00.0	0	0	eqr-20090630.xml	1	
0001193125-09-167276	1043121	BOSTON PROPERTIES LTD PARTNERSHIP	6798	US	MA	BOSTON	02199	800 BOYLSTON STREET	SUITE 1900	6172363300	US	MA	BOSTON	02199	800 BOYLSTON STREET	SUITE 1900	US	DE	000000000			4-NON	1	1231	10-Q	20090630	2009	Q2	20090806	2009-08-06 16:43:00.0	0	0	cik000104312-20090630.xml	1	
0001193125-09-167290	931182	ERP OPERATING LTD PARTNERSHIP	6798	US	IL	CHICAGO	60606	TWO N RIVERSIDE PLZ	STE 400	3124741300	US	IL	CHICAGO	60606	TWO N RIVERSIDE PLAZA	SUITE 450	US	MD	363894853			1-LAF	1	1231	10-Q	20090630	2009	Q2	20090806	2009-08-06 16:46:00.0	0	0	cik000093118-20090630.xml	1	
0001193125-09-167317	1014473	VERISIGN INC/CA	7371	US	CA	MOUNTAIN VIEW	94043	487 EAST MIDDLEFIELD ROAD	ATTN: GENERAL COUNSEL	6509617500	US	CA	MOUNTAIN VIEW	94043	487 EAST MIDDLEFIELD ROAD	ATTN: GENERAL COUNSEL	US	DE	943221585			1-LAF	1	1231	10-Q	20090630	2009	Q2	20090806	2009-08-06 16:56:00.0	0	0	vrsn-20090630.xml	1	
0001193125-09-167378	1345111	TIM HORTONS INC.	5812	CA	ON	OAKVILLE	L6K 2Y1	874 SINCLAIR ROAD		(905) 845-6511	CA	ON	OAKVILLE	L6K 2Y1	874 SINCLAIR ROAD		US	DE	510370507			1-LAF	1	1231	10-Q	20090630	2009	Q2	20090806	2009-08-06 17:16:00.0	0	0	thi-20090628.xml	1	
0000023082-09-000045	23082	COMPUTER SCIENCES CORP	7373	US	VA	FALLS CHURCH	22042	3170 FAIRVIEW PARK DRIVE		7038761000	US	VA	FALLS CHURCH	22042	3170 FAIRVIEW PARK DRIVE		US	NV	952043126			1-LAF	1	0331	10-Q	20090630	2009	Q1	20090807	2009-08-06 19:14:00.0	0	0	csc-20090703.xml	1	
0000049826-09-000066	49826	ILLINOIS TOOL WORKS INC	3560	US	IL	GLENVIEW	60025-5811	3600 W LAKE AVE		8476574106	US	IL	GLENVIEW	60025-5811	3600 WEST LAKE AVENUE		US	DE	361258310			1-LAF	1	1231	10-Q	20090630	2009	Q2	20090807	2009-08-07 16:54:00.0	0	0	itw-20090630.xml	1	
0000055785-09-000026	55785	KIMBERLY CLARK CORP	2670	US	TX	IRVING	75038	351 PHELPS DRIVE		9722811200	US	TX	DALLAS	75261-9100	P O BOX 619100	DFW AIRPORT STATION	US	DE	390394230			1-LAF	1	1231	10-Q	20090630	2009	Q2	20090807	2009-08-07 14:48:00.0	0	0	kmb-20090630.xml	1	
0000059558-09-000113	59558	LINCOLN NATIONAL CORP	6311	US	PA	RADNOR	19087	150 N RADNOR CHESTER RD		4845831475	US	PA	RADNOR	19087	150 N RADNOR CHESTER RD		US	IN	351140070			1-LAF	1	1231	10-Q	20090630	2009	Q2	20090807	2009-08-07 15:55:00.0	0	0	lnc-20090630.xml	1	
0000067716-09-000112	67716	MDU RESOURCES GROUP INC	1400	US	ND	BISMARCK	58506-5650	1200 WEST CENTURY AVENUE		701-530-1059	US	ND	BISMARCK	58506-5650	1200 WEST CENTURY AVENUE		US	DE	410423660	MONTANA DAKOTA UTILITIES CO	19850429	1-LAF	1	1231	10-Q	20090630	2009	Q2	20090807	2009-08-07 09:24:00.0	0	0	mdu-20090630.xml	1	
0000831259-09-000076	831259	FREEPORT MCMORAN COPPER & GOLD INC	1000	US	AZ	PHOENIX	85004-4414	ONE NORTH CENTRAL AVENUE		6023668100	US	LA	NEW ORLEANS	70112	1615 POYDRAS STREET		US	DE	742480931	FREEPORT MCMORAN COPPER COMPANY INC	19910114	1-LAF	1	1231	10-Q	20090630	2009	Q2	20090807	2009-08-07 17:24:00.0	0	0	fcx-20090630.xml	1	
0000950123-09-031492	890801	MCAFEE, INC.	7372	US	CA	SANTA CLARA	95054	3965 FREEDOM CIRCLE		4089883832	US	CA	SANTA CLARA	95054	3965 FREEDOM CIRCLE		US	DE	770316593	NETWORKS ASSOCIATES INC/	19980611	1-LAF	1	1231	10-Q	20090630	2009	Q2	20090807	2009-08-06 21:37:00.0	0	0	mfe-20090630.xml	1	
0000950123-09-031596	1060391	REPUBLIC SERVICES, INC.	4953	US	AZ	PHOENIX	85054	18500 N. ALLIED WAY		480 627 2700	US	AZ	PHOENIX	85054	18500 N. ALLIED WAY		US	DE	650716904	REPUBLIC SERVICES INC	19980423	1-LAF	1	1231	10-Q	20090630	2009	Q2	20090807	2009-08-07 06:33:00.0	0	0	rsg-20090630.xml	1	
0000950123-09-031677	1000697	WATERS CORP /DE/	3826	US	MA	MILFORD	01757	34 MAPLE ST		5084782000	US	MA	MILFORD	01757	34 MAPLE STREET		US	DE	133668640	WCD INVESTORS INC /DE/	19960605	1-LAF	1	1231	10-Q	20090630	2009	Q2	20090807	2009-08-07 08:02:00.0	0	0	wat-20090704.xml	1	
0000950123-09-031774	96223	LEUCADIA NATIONAL CORP	2400	US	NY	NEW YORK	10010	315 PARK AVE S		2124601900	US	NY	NEW YORK	10010	315 PARK AVENUE SOUTH		US	NY	132615557	TALCOTT NATIONAL CORP	19800603	1-LAF	1	1231	10-Q	20090630	2009	Q2	20090807	2009-08-07 10:26:00.0	0	0	luk-20090630.xml	1	
0000950123-09-031817	1064728	PEABODY ENERGY CORP	1221	US	MO	ST LOUIS	63101-1826	701 MARKET ST		3143423400	US	MO	ST LOUIS	63101-1826	701 MARKET ST		US	DE	134004153	P&L COAL HOLDINGS CORP	19980623	1-LAF	1	1231	10-Q	20090630	2009	Q2	20090807	2009-08-07 11:38:00.0	0	0	btu-20090630.xml	1	
0000950123-09-031842	1037676	ARCH COAL INC	1221	US	MO	ST LOUIS	63141	CITY PLACE ONE STE 300	ARCH MINERAL CORP	3149942700	US	MO	CREVE COEUR	63141	CITYPLACE ONE SUITE 300	ARCH MINERAL CORP	US	DE	430921172	ARCH MINERAL CORP	19970411	1-LAF	1	1231	10-Q	20090630	2009	Q2	20090807	2009-08-07 12:06:00.0	0	0	aci-20090630.xml	1	
0000950123-09-031901	1035002	VALERO ENERGY CORP/TX	2911	US	TX	SAN ANTONIO	78269-6000	P.O. BOX 696000		2103452000	US	TX	SAN ANTONIO	78269-6000	P.O. BOX 696000		US	DE	741828067			1-LAF	1	1231	10-Q	20090630	2009	Q2	20090807	2009-08-07 13:16:00.0	0	0	vlo-20090630.xml	1	
0000950123-09-031993	921847	HUDSON CITY BANCORP INC	6036	US	NJ	PARAMUS	07652	WEST 80 CENTURY RD		2019671900	US	NJ	PARMUS	07652	WEST 80 CENTURY ROAD		US	DE	223640393			1-LAF	1	1231	10-Q	20090630	2009	Q2	20090807	2009-08-07 14:51:00.0	0	0	hcbk-20090630.xml	1	
0000950123-09-032022	1169055	NOBLE CORP	1381	US	TX	SUGAR LAND	77478	13135 S DAIRY ASHFORD		41 0 41 761 6555									980366361			1-LAF	1	1231	10-Q	20090630	2009	Q2	20090807	2009-08-07 15:15:00.0	0	0	ne-20090630.xml	2	1458891
0000950123-09-032096	4447	HESS CORP	2911	US	NY	NEW YORK	10036	1185 AVENUE OF THE AMERICAS		2129978500	US	NY	NEW YORK	10036	1185 AVENUE OF THE AMERICAS		US	DE	134921002	AMERADA HESS CORP	19920703	1-LAF	1	1231	10-Q	20090630	2009	Q2	20090807	2009-08-07 16:10:00.0	0	0	hes-20090630.xml	1	
0000950123-09-032159	1043604	JUNIPER NETWORKS INC	3576	US	CA	SUNNYVALE	94089	1194 NORTH MATHILDA AVE		6505268000	US	CA	SUNNYVALE	94089	1194 NORTH MATHILDA AVE		US	DE	770422528			1-LAF	0	1231	10-Q	20090630	2009	Q2	20090807	2009-08-07 16:40:00.0	0	0	jnpr-20090630.xml	1	
0000950123-09-032191	72971	WELLS FARGO & CO/MN	6021	US	CA	SAN FRANCISCO	94163	420 MONTGOMERY STREET		6126671234	US	CA	SAN FRANCISCO	94163	WELLS FARGO & COMPANY	420 MONTGOMERY STREET	US	DE	410449260	NORWEST CORP	19920703	1-LAF	1	1231	10-Q	20090630	2009	Q2	20090807	2009-08-07 16:56:00.0	0	0	wfc-20090630.xml	1	
0000950123-09-032199	4977	AFLAC INC	6321	US	GA	COLUMBUS	31999	1932 WYNNTON RD		7063233431	US	GA	COLUMBUS	31999	1932 WYNNTON ROAD		US	GA	581167100	AMERICAN FAMILY CORP	19920306	1-LAF	1	1231	10-Q	20090630	2009	Q2	20090807	2009-08-07 17:02:00.0	0	0	afl-20090630.xml	1	
0000950123-09-032231	65100	MERRILL LYNCH & CO., INC.	6211	US	NY	NEW YORK	10080	4 WORLD FINANCIAL CTR		2124491000	US	NY	NEW YORK	10080	4 WORLD FINANCIAL CTR		US	DE	132740599	MERRILL LYNCH & CO INC	19920703	1-LAF	1	1231	10-Q	20090630	2009	Q2	20090807	2009-08-07 17:13:00.0	0	0	mer-20090630.xml	1	
0000950123-09-032262	6769	APACHE CORP	1311	US	TX	HOUSTON	77056-4400	2000 POST OAK BLVD	STE 100	7132966000	US	TX	HOUSTON	77056-4400	2000 POST OAK BLVD	STE 100	US	DE	410747868	APACHE OIL CORP	19660830	1-LAF	1	1231	10-Q	20090630	2009	Q2	20090807	2009-08-07 17:26:00.0	0	0	apa-20090630.xml	1	
0000950123-09-032270	721083	SMITH INTERNATIONAL INC	3533	US	TX	HOUSTON	77032	16740 HARDY ST	P O BOX 60068	2814433370	US	TX	HOUSTON	77205	16740 HARDY ST	P O BOX 60068	US	DE	953822631			1-LAF	1	1231	10-Q	20090630	2009	Q2	20090807	2009-08-07 17:31:00.0	0	0	sii-20090630.xml	1	
0001047469-09-007315	1234308	DIRECTV HOLDINGS LLC	4841	US	CA	EL SEGUNDO					US	CA	EL SEGUNDO	90245	2230 E IMPERIAL HIGHWAY		US	DE	593772785			4-NON	0	1231	10-Q	20090630	2009	Q2	20090807	2009-08-06 17:48:00.0	0	0	dtvh-20090630.xml	2	1234307
0001047469-09-007317	944868	DIRECTV GROUP INC	4899	US	CA	EL SEGUNDO	90245-0956	2230 EAST IMPERIAL HIGHWAY		310-964-0808	US	CA	EL SEGUNDO	90245-0956	2230 EAST IMPERIAL HIGHWAY		US	DE	521106564	HUGHES ELECTRONICS CORP	19980511	1-LAF	1	1231	10-Q	20090630	2009	Q2	20090807	2009-08-06 17:52:00.0	0	0	dtv-20090630.xml	1	
0001047469-09-007340	827052	EDISON INTERNATIONAL	4911	US	CA	ROSEMEAD	91770	2244 WALNUT GROVE AVE, STE 369	P O BOX 800	6263022222	US	CA	ROSEMEAD	91770	2244 WALNUT GROVE AVE, STE 369	P O BOX 800	US	CA	954137452	SCECORP	19920703	1-LAF	1	1231	10-Q	20090630	2009	Q2	20090807	2009-08-07 09:03:00.0	0	0	eix-20090630.xml	1	
0001047469-09-007341	92103	SOUTHERN CALIFORNIA EDISON CO	4911	US	CA	ROSEMEAD	91770	2244 WALNUT GROVE AVE	P O BOX 800	6263021212	US	CA	ROSEMEAD	91770	2244 WALNUT GROVE AVE		US	CA	951240335			4-NON	1	1231	10-Q	20090630	2009	Q2	20090807	2009-08-07 09:07:00.0	0	0	sce-20090630.xml	1	
0001047469-09-007342	930835	EDISON MISSION ENERGY	4911	US	CA	IRVINE	92612	18101 VON KARMAN AVE	STE 1700	9497525588	US	CA	IRVINE	92612	18101 VON KARMAN AVE	STE 1700	US	DE	954031807	MISSION ENERGY CO	19941003	4-NON	0	1231	10-Q	20090630	2009	Q2	20090807	2009-08-07 09:10:00.0	0	0	eme-20090630.xml	1	
0001047469-09-007343	1134016	MIDWEST GENERATION LLC	4991	US	IL	CHICAGO	60605	ONE FINANCIAL PLACE	440 SOUTH LASALLE STREET #3500	3125836000	US	IL	CHICAGO	60605	ONE FINANCIAL PLACE	440 SOUTH LASALLE STREET #3500	US	DE	330868558			4-NON	0	1231	10-Q	20090630	2009	Q2	20090807	2009-08-07 09:14:00.0	0	0	mwg-20090630.xml	1	
0001047469-09-007345	1099534	EME HOMER CITY GENERATION LP	4991	US	PA	HOMER CITY	15748	1750 POWER PLANT ROAD		724 479 9011	US	PA	HOMER CITY	15748	1750 POWER PLANT ROAD		US	PA	330826938			4-NON	0	1231	10-Q	20090630	2009	Q2	20090807	2009-08-07 09:19:00.0	0	0	hcg-20090630.xml	1	
0001047469-09-007370	1355096	LIBERTY MEDIA CORP	4841	US	CO	ENGLEWOOD	80112	12300 LIBERTY BOULEVARD		7208755400	US	CO	ENGLEWOOD	80112	12300 LIBERTY BOULEVARD				841288730	LIBERTY MEDIA HOLDING CORP	20060303	1-LAF	1	1231	10-Q	20090630	2009	Q2	20090807	2009-08-07 12:41:00.0	0	0	lcapa-20090630.xml	1	
0001047469-09-007382	837173	WALTER ENERGY, INC.	1220	US	FL	TAMPA	33607	4211 W. BOY SCOUT BLVD.		8138714811	US	FL	TAMPA	33607	4211 W. BOY SCOUT BLVD.	4211 W. BOY SCOUT BLVD.	US	DE	133429953	WALTER INDUSTRIES INC /NEW/	19950207	1-LAF	1	1231	10-Q	20090630	2009	Q2	20090807	2009-08-07 15:00:00.0	0	0	wlt-20090630.xml	1	
0001047469-09-007384	1004440	CONSTELLATION ENERGY GROUP INC	4911	US	MD	BALTIMORE	21202	100 CONSTELLATION WAY		4104702800	US	MD	BALTIMORE	21202	100 CONSTELLATION WAY		US	MD	521964611	CONSTELLATION ENERGY CORP	19951220	1-LAF	1	1231	10-Q	20090630	2009	Q2	20090807	2009-08-07 15:37:00.0	0	0	ceg-20090630.xml	2	9466
0001047469-09-007400	831001	CITIGROUP INC	6021	US	NY	NEW YORK	10043	399 PARK AVENUE		2125591000	US	NY	NEW YORK	10043	399 PARK AVENUE		US	DE	521568099	TRAVELERS GROUP INC	19950519	1-LAF	1	1231	10-Q	20090630	2009	Q2	20090807	2009-08-07 16:49:00.0	0	0	c-20090630.xml	1	
0001047469-09-007411	38079	FOREST OIL CORP	1311	US	CO	DENVER	80202	707 SEVENTEENTH STREET	SUITE 3600	3038121400	US	CO	DENVER	80202	707 SEVENTEENTH STREET	SUITE 3600	US	NY	250484900	FOREST OIL CORP	20040819	1-LAF	1	1231	10-Q	20090630	2009	Q2	20090807	2009-08-07 17:16:00.0	0	0	fst-20090630.xml	1	
0001104659-09-047977	31462	ECOLAB INC	2840	US	MN	ST PAUL	55102	ECOLAB CORPORATE CENTER	370 WABASHA STREET NORTH	6512932233	US	MN	ST. PAUL	55102	ECOLAB CORPORATE CENTER	370 WABASHA STREET NORTH	US	DE	410231510	ECONOMICS LABORATORY INC	19861203	1-LAF	1	1231	10-Q	20090630	2009	Q2	20090807	2009-08-07 08:12:00.0	0	0	ecl-20090630.xml	1	
0001104659-09-048013	1800	ABBOTT LABORATORIES	2834	US	IL	ABBOTT PARK	60064-3500	100 ABBOTT PARK ROAD	D-322 AP6D	8479376100							US	IL	360698440			1-LAF	1	1231	10-Q	20090630	2009	Q2	20090807	2009-08-07 09:27:00.0	0	0	abt-20090630.xml	1	
0001104659-09-048036	1070423	PLAINS ALL AMERICAN PIPELINE LP	4610	US	TX	HOUSTON	77002	333 CLAY STREET	SUITE 1600	7136544100	US	TX	HOUSTON	77002	333 CLAY STREET	SUITE 1600	US	DE	760582150			1-LAF	1	1231	10-Q	20090630	2009	Q2	20090807	2009-08-07 09:57:00.0	0	0	paa-20090630.xml	1	
0001104659-09-048054	812074	OWENS ILLINOIS INC /DE/	3221	US	OH	PERRYSBURG	43551-2999	ONE MICHAEL OWENS WAY		5673365000	US	OH	PERRYSBURG	43551-2999	ONE MICHAEL OWENS WAY		US	DE	222781933	OWENS ILLINOIS HOLDINGS CORP	19870512	1-LAF	1	1231	10-Q	20090630	2009	Q2	20090807	2009-08-07 10:40:00.0	0	0	oi-20090630.xml	1	
0001104659-09-048135	1168054	CIMAREX ENERGY CO	1311	US	CO	DENVER	80203-4518	1700 LINCOLN STREET	SUITE 1800	303-295-3995	US	CO	DENVER	80203-4518	1700 LINCOLN STREET	SUITE 1800	US	DE	450466694	HELMERICH & PAYNE EXPLORATION & PRODUCTION CO	20020222	1-LAF	1	1231	10-Q	20090630	2009	Q2	20090807	2009-08-07 13:20:00.0	0	0	xec-20090630.xml	1	
0001104659-09-048161	1022671	STEEL DYNAMICS INC	3312	US	IN	FORT WAYNE	46804	7575 W JEFFERSON BLVD		260 459 3553	US	IN	FORT WAYNE	46804	7575 W JEFFERSON BLVD		US	IN	351929476			1-LAF	1	1231	10-Q	20090630	2009	Q2	20090807	2009-08-07 14:09:00.0	0	0	stld-20090630.xml	1	
0001104659-09-048222	315293	AON CORP	6411	US	IL	CHICAGO	60601	200 EAST RANDOLPH STREET		3123811000	US	IL	CHICAGO	60601	200 EAST RANDOLPH STREET		US	DE	363051915	COMBINED INTERNATIONAL CORP	19870504	1-LAF	1	1231	10-Q	20090630	2009	Q2	20090807	2009-08-07 16:03:00.0	0	0	aoc-20090630.xml	1	
0001104659-09-048234	718877	ACTIVISION BLIZZARD, INC.	7372	US	CA	SANTA MONICA	90405	3100 OCEAN PARK BLVD		3102552000	US	CA	SANTA MONICA	90405	3100 OCEAN PARK BLVD		US	DE	954803544	ACTIVISION INC /NY	19930114	1-LAF	1	1231	10-Q	20090630	2009	Q2	20090807	2009-08-07 16:13:00.0	0	0	atvi-20090630.xml	1	
0001157523-09-005813	1067983	BERKSHIRE HATHAWAY INC	6331	US	NE	OMAHA	68131	1440 KIEWIT PLZ		4023461400	US	NE	OMAHA	68131	1440 KIEWIT PLAZA		US	DE	470813844	NBH INC	19980810	1-LAF	1	1231	10-Q	20090630	2009	Q2	20090807	2009-08-07 17:10:00.0	0	0	brka-20090630.xml	1	
0001193125-09-167427	874761	AES CORP	4991	US	VA	ARLINGTON	22203	4300 WILSON BOULEVARD		7035221315	US	VA	ARLINGTON	22203	4300 WILSON BOULEVARD		US	DE	541163725	AES CORPORATION	19930328	1-LAF	1	1231	10-Q	20090630	2009	Q2	20090807	2009-08-06 17:38:00.0	0	0	aes-20090630.xml	1	
0001193125-09-167626	927066	DAVITA INC	8090	US	CA	EL SEGUNDO	90245	601 HAWAII STREET		3105362400	US	CA	EL SEGUNDO	90245	601 HAWAII STREET		US	DE	510354549	TOTAL RENAL CARE HOLDINGS INC	19950524	1-LAF	1	1231	10-Q	20090630	2009	Q2	20090807	2009-08-06 20:12:00.0	0	0	dva-20090630.xml	1	
0001193125-09-168068	1010775	MIRANT CORP	4911	US	GA	ATLANTA	30338	1155 PERIMETER CENTER WEST	SUITE 100	6785795000	US	GA	ATLANTA	30338	1155 PERIMETER CENTER WEST	SUITE 100	US	DE	582056305	SOUTHERN ENERGY INC	19980729	1-LAF	1	1231	10-Q	20090630	2009	Q2	20090807	2009-08-07 07:01:00.0	0	0	mir-20090630.xml	1	
0001193125-09-168413	320335	TORCHMARK CORP	6311	US	TX	MCKINNEY	75070	3700 SOUTH STONEBRIDGE DRIVE		972-569-4000	US	TX	MCKINNEY	75070	3700 SOUTH  STONEBRIDGE DRIVE		US	DE	630780404	TORCHMARK CORP SAVINGS & INVESTMENT PLAN	19820825	1-LAF	1	1231	10-Q	20090630	2009	Q2	20090807	2009-08-07 10:35:00.0	0	0	tmk-20090630.xml	1	
0001193125-09-168490	1368007	NYSE EURONEXT	6200	US	NY	NEW YORK	10005	11 WALL STREET		212-656-3000	US	NY	NEW YORK	10005	11 WALL STREET		US	DE	205110848	NYSE EURONEXT, INC.	20060628	1-LAF	1	1231	10-Q	20090630	2009	Q2	20090807	2009-08-07 11:13:00.0	0	0	nyx-20090630.xml	1	
0001193125-09-168492	277595	ENERGEN CORP	4924	US	AL	BIRMINGHAM	35203-2707	605 RICHARD ARRINGTON JR BLVD N		2053262997	US	AL	BIRMINGHAM	35203	605 RICHARD ARRINGTON JR BLVD N		US	AL	630757759	ALAGASCO INC	19851002	1-LAF	1	1231	10-Q	20090630	2009	Q2	20090807	2009-08-07 11:13:00.0	0	0	egn-20090630.xml	2	3146
0001193125-09-168553	1135152	FMC TECHNOLOGIES INC	3533	US	TX	HOUSTON	77067	1803 GEARS ROAD		2815914000	US	TX	HOUSTON	77067	1803 GEARS ROAD		US	DE	364412642			1-LAF	1	1231	10-Q	20090630	2009	Q2	20090807	2009-08-07 11:35:00.0	0	0	fti-20090630.xml	1	
0001193125-09-168564	38777	FRANKLIN RESOURCES INC	6282	US	CA	SAN MATEO	94403	ONE FRANKLIN PARKWAY	BUILDING 920	650-312-2000	US	CA	SAN MATEO	94403	FRANKLIN RESOURCES INC	ONE FRANKLIN PARKWAY	US	DE	132670991			1-LAF	1	0930	10-Q	20090630	2009	Q3	20090807	2009-08-07 11:42:00.0	0	0	ben-20090630.xml	1	
0001193125-09-168607	1326160	DUKE ENERGY CORP	4931	US	NC	CHARLOTTE	28202	526 SOUTH CHURCH STREET	EC03T	704-594-6200	US	NC	CHARLOTTE	28202	526 SOUTH CHURCH STREET	EC03T	US	DE	202777218	DUKE ENERGY HOLDING CORP.	20050628	1-LAF	1	1231	10-Q	20090630	2009	Q2	20090807	2009-08-07 11:59:00.0	0	0	duk-20090630.xml	1	
0001193125-09-168742	79958	PRECISION CASTPARTS CORP	3320	US	OR	PORTLAND	97239	4650 SW MACADAM AVE	STE 440	503.417.4800	US	OR	PORTLAND	97239	4650 SW MACADAM AVE	STE 440	US	OR	930460598			1-LAF	1	0331	10-Q	20090630	2009	Q1	20090807	2009-08-07 13:13:00.0	0	0	pcp-20090628.xml	1	
0001193125-09-168802	717423	MURPHY OIL CORP /DE	2911	US	AR	EL DORADO	71731-7000	200 PEACH ST	PO BOX 7000	8708626411	US	AR	EL DORADO	71731-7000	200 PEACH STREET	PO BOX 7000	US	DE	710361522	NEW MURPHY OIL CORP /DE	19831115	1-LAF	1	1231	10-Q	20090630	2009	Q2	20090807	2009-08-07 13:46:00.0	0	0	mur-20090630.xml	1	
0001193125-09-168881	896159	ACE LTD	6331	BM		HAMILTON HM 08 BERMU	00000	ACE BLDG	30 WOODBOURNE AVE	8092955200	BM		HAMITON BERMUDA	00000	P O BOX HM 1015		BM		000000000			1-LAF	1	1231	10-Q	20090630	2009	Q2	20090807	2009-08-07 14:23:00.0	0	0	ace-20090630.xml	1	
0001193125-09-168917	3673	ALLEGHENY ENERGY, INC	4911	US	PA	GREENSBURG	15601	800 CABIN HILL DRIVE		7248373000	US	PA	GREENSBURG	15601	800 CABIN HILL DRIVE		US	MD	135531602	ALLEGHENY ENERGY INC	19970926	1-LAF	1	1231	10-Q	20090630	2009	Q2	20090807	2009-08-07 14:49:00.0	0	0	aye-20090630.xml	1	
0001193125-09-168935	70858	BANK OF AMERICA CORP /DE/	6021	US	NC	CHARLOTTE	28255	BANK OF AMERICA CORPORATE CENTER	100 N TRYON ST	7043868486	US	NC	CHARLOTTE	28255	BANK OF AMERICA CORPORATE CENTER	100 N TRYON ST	US	DE	560906609	BANKAMERICA CORP/DE/	19981022	1-LAF	1	1231	10-Q	20090630	2009	Q2	20090807	2009-08-07 14:56:00.0	0	0	bac-20090630.xml	1	
0001193125-09-168937	877890	CITRIX SYSTEMS INC	7372	US	FL	FORT LAUDERDALE	33309	851 WEST CYPRESS CREEK ROAD		9542673000	US	FL	FL LAUDERDALE	33309	851 WEST CYPRESS CREEK ROAD		US	DE	752275152			1-LAF	1	1231	10-Q	20090630	2009	Q2	20090807	2009-08-07 14:57:00.0	0	0	ctxs-20090630.xml	1	
0001193125-09-168965	1373835	SPECTRA ENERGY CORP.	4923	US	TX	HOUSTON	77056	5400 WESTHEIMER COURT		704-382-8160	US	NC	CHARLOTTE	28285	400 SOUTH TRYON STREET		US	DE	205413139	GAS SPINCO, INC.	20060825	1-LAF	1	1231	10-Q	20090630	2009	Q2	20090807	2009-08-07 15:11:00.0	0	0	se-20090630.xml	1	
0001193125-09-168966	1058290	COGNIZANT TECHNOLOGY SOLUTIONS CORP	7371	US	NJ	TEANECK	07666	500 FRANK W. BURR BLVD.		2018010233	US	NJ	TEANECK	07666	500 FRANK W. BURR BLVD.				133728359			1-LAF	1	1231	10-Q	20090630	2009	Q2	20090807	2009-08-07 15:11:00.0	0	0	ctsh-20090630.xml	1	
0001193125-09-168969	1364742	BLACKROCK INC.	6211	US	NY	NEW YORK	10022	40 EAST 52ND STREET		212-810-5300	US	NY	NEW YORK	10022	40 EAST 52ND STREET		US	DE	320174431	BLACKROCK, INC.	20060929	1-LAF	1	1231	10-Q	20090630	2009	Q2	20090807	2009-08-07 15:14:00.0	0	0	blk-20090630.xml	1	
0001193125-09-169068	1090727	UNITED PARCEL SERVICE INC	4210	US	GA	ATLANTA	30328	55 GLENLAKE PARKWAY NE		4048286000	US	GA	ATLANTA	30328	55 GLENLAKE PARKWAY NE		US	DE	582480149			1-LAF	1	1231	10-Q	20090630	2009	Q2	20090807	2009-08-07 16:06:00.0	0	0	ups-20090630.xml	1	
0001193125-09-169079	789073	FORTUNE BRANDS INC	3430	US	IL	DEERFIELD	60015	520 LAKE COOK ROAD		8474844400	US	IL	DEERFIELD	60015	520 LAKE COOK ROAD		US	DE	133295276	AMERICAN BRANDS INC /DE/	19920703	1-LAF	1	1231	10-Q	20090630	2009	Q2	20090807	2009-08-07 16:10:00.0	0	0	fo-20090630.xml	1	
0001193125-09-169081	1137774	PRUDENTIAL FINANCIAL INC	6311	US	NJ	NEWARK	07102	751 BROAD ST		9738026000	US	NJ	NEWARK	07102	751 BROAD ST		US	NJ	223703799			1-LAF	1	1231	10-Q	20090630	2009	Q2	20090807	2009-08-07 16:11:00.0	0	0	pru-20090630.xml	1	
0001193125-09-169086	746515	EXPEDITORS INTERNATIONAL OF WASHINGTON INC	4731	US	WA	SEATTLE	98104	1015 THIRD AVENUE 12TH FLOOR		2066743400	US	WA	SEATTLE	98104	1015 THIRD AVENUE 12TH FLOOR		US	WA	911069248			1-LAF	1	1231	10-Q	20090630	2009	Q2	20090807	2009-08-07 16:13:00.0	0	0	expd-20090630.xml	1	
0001193125-09-169110	1011006	YAHOO INC	7373	US	CA	SUNNYVALE	94089	YAHOO! INC.	701 FIRST AVENUE	4083493300	US	CA	SUNNYVALE	94089	701 FIRST AVENUE		US	DE	770398689			1-LAF	1	1231	10-Q	20090630	2009	Q2	20090807	2009-08-07 16:20:00.0	0	0	yhoo-20090630.xml	1	
0001193125-09-169196	1390777	BANK OF NEW YORK MELLON CORP	6022	US	NY	NEW YORK	10286	ONE WALL STREET		212-495-1784	US	NY	NEW YORK	10286	ONE WALL STREET				000000000			1-LAF	1	1231	10-Q	20090630	2009	Q2	20090807	2009-08-07 16:49:00.0	0	0	bk-20090630.xml	1	
0001193125-09-169269	895421	MORGAN STANLEY	6211	US	NY	NEW YORK	10036	1585 BROADWAY		212-761-4000	US	NY	NEW YORK	10036	1585 BROADWAY		US	DE	363145972	MORGAN STANLEY DEAN WITTER & CO	19980326	1-LAF	1	1231	10-Q	20090630	2009	Q2	20090807	2009-08-07 17:20:00.0	0	0	ms-20090630.xml	1	
0001310243-09-000085	1310243	ALPHA NATURAL RESOURCES, INC./OLD	1221	US	VA	ABINGDON	24212	ONE ALPHA PLACE	P.O. BOX 2345	276-619-4463	US	VA	ABINGDON	24212	ONE ALPHA PLACE	P.O. BOX 2345	US	DE	000000000	ALPHA NATURAL RESOURCES, INC.	20041201	1-LAF	1	1231	10-Q	20090630	2009	Q2	20090807	2009-08-07 16:03:00.0	0	0	anr-20090630.xml	1	
0000038074-09-000041	38074	FOREST LABORATORIES INC	2834	US	NY	NEW YORK	10022	909 THIRD AVENUE		(212)421-7850	US	NY	NEW YORK	10022	909 THIRD AVENUE		US	DE	111798614			1-LAF	1	0331	10-Q	20090630	2009	Q1	20090810	2009-08-10 14:31:00.0	0	0	frx-20090630.xml	1	
0000085408-09-000039	85408	ROWAN COMPANIES INC	1381	US	TX	HOUSTON	77056-6127	2800 POST OAK BLVD.	SUITE 5450	7136217800	US	TX	HOUSTON	77056-6127	2800 POST OAK BOULEVARD	SUITE 5450	US	DE	750759420	ROWAN DRILLING CO INC	19711110	1-LAF	1	1231	10-Q	20090630	2009	Q2	20090810	2009-08-10 16:51:00.0	0	0	rdc-20090630.xml	1	
0000827054-09-000154	827054	MICROCHIP TECHNOLOGY INC	3674	US	AZ	CHANDLER	85224-6199	2355 W CHANDLER BLVD		480-792-7200	US	AZ	CHANDLER	85224-6199	2355 WEST CHANDLER BLVD		US	DE	860629024			1-LAF	1	0331	10-Q/A	20090630	2009	Q1	20090810	2009-08-10 17:30:00.0	0	0	mchp-20090630.xml	1	
0000912750-09-000056	912750	NEWFIELD EXPLORATION CO /DE/	1311	US	TX	HOUSTON	77060	363 NORTH SAM HOUSTON PARKWAY EAST	SUITE 100	281-847-6000	US	TX	HOUSTON	77060	363 NORTH SAM HOUSTON PARKWAY EAST	SUITE 100	US	DE	721133047			1-LAF	1	1231	10-Q/A	20090630	2009	Q2	20090810	2009-08-10 16:57:00.0	0	0	nfx-20090630.xml	1	
0000950123-09-032328	1021860	NATIONAL OILWELL VARCO INC	3533	US	TX	HOUSTON	77042-4200	10000 RICHMOND AVENUE	6TH FLOOR	7133467500	US	TX	HOUSTON	77042-4200	10000 RICHMOND AVENUE	6TH FLOOR	US	DE	760475815	NATIONAL OILWELL INC	19960829	1-LAF	1	1231	10-Q	20090630	2009	Q2	20090810	2009-08-07 19:49:00.0	0	0	nov-20090630.xml	1	
0000950123-09-032414	1066107	EL PASO CORP/DE	4922	US	TX	HOUSTON	77002	1001 LOUISIANA ST, SUITE 2955A	EL PASO BLDG	7134202600	US	TX	HOUSTON	77002	1001 LOUISIANA ST	SUITE 2955A	US	DE	760568816	EL PASO ENERGY CORP/DE	19980716	1-LAF	0	1231	10-Q	20090630	2009	Q2	20090810	2009-08-07 21:49:00.0	0	0	ep-20090630.xml	1	
0000950123-09-032467	1001082	DISH NETWORK CORP	4841	US	CO	ENGLEWOOD	80112	9601 S. MERIDIAN BLVD.		3037231000	US	CO	ENGLEWOOD	80112	9601 S. MERIDIAN BLVD.		US	NV	880336997	ECHOSTAR COMMUNICATIONS CORP	19950919	1-LAF	1	1231	10-Q	20090630	2009	Q2	20090810	2009-08-10 06:03:00.0	0	0	dish-20090630.xml	1	
0000950123-09-032642	91576	KEYCORP /NEW/	6021	US	OH	CLEVELAND	44114-1306	127 PUBLIC SQ		2166896300	US	OH	CLEVELAND	44114-1306	127 PUBLIC SQ		US	OH	346542451	SOCIETY CORP	19920703	1-LAF	1	1231	10-Q	20090630	2009	Q2	20090810	2009-08-10 11:51:00.0	0	0	key-20090630.xml	1	
0000950123-09-032660	10795	BECTON DICKINSON & CO	3841	US	NJ	FRANKLIN LAKES	07417-1880	ONE BECTON DR		2018476800	US	NJ	FRANKLIN LAKE	07417	ONE BECTON DR		US	NJ	220760120			1-LAF	1	0930	10-Q	20090630	2009	Q3	20090810	2009-08-10 12:23:00.0	0	0	bdx-20090630.xml	1	
0000950123-09-032665	20171	CHUBB CORP	6331	US	NJ	WARREN	07061	15 MOUNTAIN VIEW ROAD		9089032000	US	NJ	WARREN	07061	15 MOUNTAIN VIEW ROAD		US	NJ	132595722			1-LAF	1	1231	10-Q	20090630	2009	Q2	20090810	2009-08-10 12:30:00.0	0	0	cb-20090630.xml	1	
0000950123-09-032668	945764	DENBURY RESOURCES INC	1311	US	TX	PLANO	75024	5100 TENNYSON PARKWAY	SUITE 3000	9726732000	US	TX	PLANO	75024	5100 TENNYSON PARKWAY	SUITE 3000	US	DE	752815171	NEWSCOPE RESOURCES LTD	19950627	1-LAF	1	1231	10-Q	20090630	2009	Q2	20090810	2009-08-10 12:34:00.0	0	0	dnr-20090630.xml	1	
0000950123-09-032702	915912	AVALONBAY COMMUNITIES INC	6798	US	VA	ALEXANDRIA	22314	2900 EISENHOWER AVENUE	SUITE 300	7033296300	US	VA	ALEXANDRIA	22314	2900 EISENHOWER AVENUE	STE 300	US	MD	770404318	AVALON BAY COMMUNITIES INC	19980618	1-LAF	1	1231	10-Q	20090630	2009	Q2	20090810	2009-08-10 13:20:00.0	0	0	avb-20090630.xml	1	
0000950123-09-032827	1050915	QUANTA SERVICES INC	1731	US	TX	HOUSTON	77056	1360 POST OAK BLVD	SUITE 2100	7133506000	US	TX	HOUSTON	77056	1360 POST OAK BLVD SUITE 2100		US	DE	742851603			1-LAF	1	1231	10-Q	20090630	2009	Q2	20090810	2009-08-10 15:41:00.0	0	0	pwr-20090630.xml	1	
0000950123-09-032832	19617	J P MORGAN CHASE & CO	6021	US	NY	NEW YORK	10017	270 PARK AVE	38TH FL	2122706000	US	NY	NEW YORK	10017	270 PARK AVENUE		US	DE	132624428	CHASE MANHATTAN CORP /DE/	19960402	1-LAF	1	1231	10-Q	20090630	2009	Q2	20090810	2009-08-10 15:46:00.0	0	0	jpm-20090630.xml	1	
0000950123-09-033037	36104	US BANCORP \DE\	6021	US	MN	MINNEAPOLIS	55402	U.S.BANCORP	800 NICOLLET MALL	(651)466-3000	US	MN	MINNEAPOLIS	55402	U.S.BANCORP	800 NICOLLET MALL	US	DE	410255900	FIRST BANK SYSTEM INC	19920703	1-LAF	1	1231	10-Q	20090630	2009	Q2	20090810	2009-08-10 17:09:00.0	0	0	usb-20090630.xml	1	
0001104659-09-048413	895648	GENERAL GROWTH PROPERTIES INC	6798	US	IL	CHICAGO	60606	110 N WACKER DRIVE	STE 3100	3129605000	US	IL	CHICAGO	60606	110 N WACKER DRIVE	STE 3100	US	DE	421283895			1-LAF	0	1231	10-Q	20090630	2009	Q2	20090810	2009-08-10 08:50:00.0	0	0	ggp-20090630.xml	1	
0001104659-09-048635	1124198	FLUOR CORP	1600	US	TX	IRVING	75039	6700 LAS COLINAS BLVD		4693987000	US	TX	IRVING	75039	6700 LAS COLINAS BLVD		US	DE	330927079			1-LAF	1	1231	10-Q	20090630	2009	Q2	20090810	2009-08-10 16:15:00.0	0	0	flr-20090630.xml	1	
0001104659-09-048657	1144519	BUNGE LTD	2070	US	NY	WHITE PLAINS	10606	50 MAIN STREET	6TH FLOOR	914-684-2800	US	NY	WHITE PLAINS	10606	50 MAIN STREET	6TH FLOOR			000000000	BUNGE LTD	20010710	1-LAF	1	1231	10-Q	20090630	2009	Q2	20090810	2009-08-10 16:28:00.0	0	0	bg-20090630.xml	1	
0001193125-09-169343	850693	ALLERGAN INC	2834	US	CA	IRVINE	92612	2525 DUPONT DRIVE		7142464500	US	CA	IRVINE	92713-9534	P.O. BOX 19534		US	DE	951622442			1-LAF	1	1231	10-Q	20090630	2009	Q2	20090810	2009-08-07 18:24:00.0	0	0	agn-20090630.xml	1	
0001193125-09-169378	318154	AMGEN INC	2836	US	CA	THOUSAND OAKS	91320-1799	ONE AMGEN CENTER DRIVE	MAIL STOP 24-1-B	(805)313-1762	US	CA	THOUSAND OAKS	91320-1799	ONE AMGEN CENTER DRIVE	MAIL STOP 24-1-B	US	DE	953540776	AMGEN	19870305	1-LAF	1	1231	10-Q	20090630	2009	Q2	20090810	2009-08-07 19:10:00.0	0	0	amgn-20090630.xml	1	
0001193125-09-169449	93751	STATE STREET CORP	6022	US	MA	BOSTON	02111	ONE LINCOLN STREET		617 786-3000	US	MA	BOSTON	02111	ONE LINCOLN STREET		US	MA	042456637	STATE STREET CORP	19970424	1-LAF	1	1231	10-Q	20090630	2009	Q2	20090810	2009-08-07 20:45:00.0	0	0	stt-20090630.xml	1	
0001193125-09-169473	106535	WEYERHAEUSER CO	2400	US	WA	FEDERAL WAY	98003	33663 WEYERHAEUSER WAY SOUTH		2539242345	US	WA	FEDERAL WAY	98003	33663 WEYERHAEUSER WAY SOUTH		US	WA	910470860			1-LAF	1	1231	10-Q	20090630	2009	Q2	20090810	2009-08-07 21:17:00.0	0	0	wy-20090630.xml	1	
0001193125-09-169479	750556	SUNTRUST BANKS INC	6021	US	GA	ATLANTA	30308	303 PEACHTREE ST N E		4045887711	US	GA	ATLANTA	30308	303 PEACHTREE ST N E		US	GA	581575035			1-LAF	1	1231	10-Q	20090630	2009	Q2	20090810	2009-08-07 21:28:00.0	0	0	sti-20090630.xml	1	
0001193125-09-170002	80661	PROGRESSIVE CORP/OH/	6331	US	OH	MAYFIELD VILLAGE	44143	6300 WILSON MILLS RD		4404615000	US	OH	MAYFIELD VILLAGE	44143	6300 WILSON MILLS RD		US	OH	340963169			1-LAF	1	1231	10-Q	20090630	2009	Q2	20090810	2009-08-10 10:13:00.0	0	0	pgr-20090630.xml	1	
0001193125-09-170159	1043277	C H ROBINSON WORLDWIDE INC	4731	US	MN	EDEN PRAIRIE	55347	14701 CHARLSON ROAD		9529378500	US	MN	EDEN PRAIRIE	55347	14701 CHARLSON ROAD		US	DE	411883630			1-LAF	1	1231	10-Q	20090630	2009	Q2	20090810	2009-08-10 11:46:00.0	0	0	chrw-20090630.xml	1	
0001193125-09-170208	354908	FLIR SYSTEMS INC	3812	US	OR	WILSONVILLE	97070	27700 SW PARKWAY AVENUE		5034983547	US	OR	WILSONVILLE	97070	27700 SW PARKWAY AVENUE		US	OR	930708501			1-LAF	1	1231	10-Q	20090630	2009	Q2	20090810	2009-08-10 12:10:00.0	0	0	flir-20090630.xml	1	
0001193125-09-170256	25475	CRAWFORD & CO	6411	US	GA	ATLANTA	30319	1001SUMMIT BLVD, NE		4042560830	US	GA	ATLANTA	30319	1001 SUMMIT BLVD, NE		US	GA	580506554			2-ACC	0	1231	10-Q	20090630	2009	Q2	20090810	2009-08-10 12:38:00.0	0	0	crda-20090630.xml	1	
0001193125-09-170340	864328	BJ SERVICES CO	1389	US	TX	HOUSTON	77041	4601 WESTWAY PARK BLVD		7134624239	US	TX	HOUSTON	77041	4601 WESTWAY PARK BLVD	4601 WESTWAY PARK BLVD	US	DE	630084140			1-LAF	1	0930	10-Q/A	20090630	2009	Q3	20090810	2009-08-10 13:47:00.0	0	0	bjs-20090630.xml	1	
0001193125-09-170375	51434	INTERNATIONAL PAPER CO /NEW/	2621	US	TN	MEMPHIS	38197	6400 POPLAR AVENUE		901-419-7000	US	TN	MEMPHIS	38197	6400 POPLAR AVENUE		US	NY	130872805	INTERNATIONAL PAPER & POWER CORP	19710527	1-LAF	1	1231	10-Q/A	20090630	2009	Q2	20090810	2009-08-10 14:13:00.0	0	0	ip-20090630.xml	1	
0001193125-09-170393	1378946	PEOPLE'S UNITED FINANCIAL, INC.	6035	US	CT	BRIDGEPORT	06604	C/O PEOPLE'S BANK	850 MAIN STREET	203-338-4114	US	CT	BRIDGEPORT	06604	C/O PEOPLE'S BANK	850 MAIN STREET	US	DE	000000000			1-LAF	1	1231	10-Q	20090630	2009	Q2	20090810	2009-08-10 14:21:00.0	0	0	pbct-20090630.xml	1	
0001193125-09-170432	1002910	AMEREN CORP	4931	US	MO	ST LOUIS	63166-6149	1901 CHOUTEAU AVE	MC 1370	314-621-3222	US	MO	ST LOUIS	63103	1901 CHOUTEAU AVE	MC 1370	US	MO	431723446			1-LAF	1	1231	10-Q	20090630	2009	Q2	20090810	2009-08-10 14:44:00.0	0	0	aee-20090630.xml	7	18651 18654 49816 100826 762129 1135361
0001193125-09-170563	713676	PNC FINANCIAL SERVICES GROUP INC	6021	US	PA	PITTSBURGH	15222	ONE PNC PLAZA	249 FIFTH AVENUE	412-762-2000	US	PA	PITTSBURGH	15222	ONE PNC PLAZA	249 FIFTH AVENUE	US	PA	251435979	PNC BANK CORP	19930505	1-LAF	1	1231	10-Q	20090630	2009	Q2	20090810	2009-08-10 15:49:00.0	0	0	pnc-20090630.xml	1	
0001193125-09-170623	910073	NEW YORK COMMUNITY BANCORP INC	6036	US	NY	WESTBURY	11590	615 MERRICK AVE		7183596400	US	NY	WESTBURY	11590	615 MERRICK AVE		US	DE	061377322	QUEENS COUNTY BANCORP INC	19930802	1-LAF	1	1231	10-Q	20090630	2009	Q2	20090810	2009-08-10 16:06:00.0	0	0	nyb-20090630.xml	1	
0001193125-09-170647	895126	CHESAPEAKE ENERGY CORP	1311	US	OK	OKLAHOMA CITY	73118	6100 N WESTERN AVE		4058488000	US	OK	OKLAHOMA CITY	73118	6100 NORTH WESTERN AVE		US	OK	731395733			1-LAF	1	1231	10-Q	20090630	2009	Q2	20090810	2009-08-10 16:12:00.0	0	0	chk-20090630.xml	1	
0001193125-09-170697	35527	FIFTH THIRD BANCORP	6022	US	OH	CINCINNATI	45263	38 FOUNTAIN SQ PLZ	FIFTH THIRD CENTER	5135795300							US	OH	310854434			1-LAF	1	1231	10-Q	20090630	2009	Q2	20090810	2009-08-10 16:28:00.0	0	0	fitb-20090630.xml	1	
0001193125-09-170756	927628	CAPITAL ONE FINANCIAL CORP	6022	US	VA	MCLEAN	22102	1680 CAPITAL ONE DRIVE	SUITE 1400	7037201000	US	VA	MCLEAN	22102	1680 CAPITAL ONE DRIVE	SUITE 1400	US	DE	541719854	OAKSTONE FINANCIAL CORP	19940728	1-LAF	1	1231	10-Q	20090630	2009	Q2	20090810	2009-08-10 16:52:00.0	0	0	cof-20090630.xml	1	
0001193125-09-170759	712515	ELECTRONIC ARTS INC.	7372	US	CA	REDWOOD CITY	94065	209 REDWOOD SHORES PARKWAY		650-628-1500	US	CA	REDWOOD CITY	94065	209 REDWOOD SHORES PARKWAY		US	DE	942838567	ELECTRONIC ARTS INC	19920703	1-LAF	1	0331	10-Q	20090630	2009	Q1	20090810	2009-08-10 16:52:00.0	0	0	erts-20090630.xml	1	
0001193125-09-170760	740761	BUCYRUS INTERNATIONAL INC	3532	US	WI	SOUTH MILWAUKEE	53172-0500	P O BOX 500	1100 MILWAUKEE AVENUE	4147684000	US	WI	SOUTH MILWAUKEE	53172-0500	P O BOX 500	1100 MILWAUKEE AVENUE	US	DE	390188050	BUCYRUS ERIE CO /DE	19920703	1-LAF	1	1231	10-Q	20090630	2009	Q2	20090810	2009-08-10 16:52:00.0	0	0	bucy-20090630.xml	1	
0001193125-09-170830	62709	MARSH & MCLENNAN COMPANIES, INC.	6411	US	NY	NEW YORK	10036	1166 AVENUE OF THE AMERICAS		2123455000	US	NY	NEW YORK	10036	1166 AVENUE OF THE AMERICAS		US	DE	362668272	MARSH & MCLENNAN COMPANIES INC	19920703	1-LAF	1	1231	10-Q/A	20090630	2009	Q2	20090810	2009-08-10 17:11:00.0	0	0	mmc-20090630.xml	1	
0001393311-09-000025	1393311	PUBLIC STORAGE	6798	US	CA	GLENDALE	91201-2349	701 WESTERN AVENUE		818-244-8080	US	CA	GLENDALE	91201-2349	701 WESTERN AVENUE		US	MD	953551121			1-LAF	1	1231	10-Q/A	20090630	2009	Q2	20090810	2009-08-10 16:50:00.0	0	0	psa-20090630.xml	1	
0000037748-09-000037	37748	MASSEY ENERGY CO	1221	US	VA	RICHMOND	23219	4 NORTH 4TH STREET		9493492000	US	VA	RICHMOND	23219	4 NORTH 4TH STREET		US	DE	950740960	FLUOR CORP/DE/	19920703	1-LAF	1	1231	10-Q/A	20090630	2009	Q2	20090811	2009-08-11 15:34:00.0	0	0	mee-20090630.xml	1	
0000950123-09-033506	103379	V F CORP	2320	US	NC	GREENSBORO	27408	105 CORPORATE CENTER BOULEVARD		(336)424-6000	US	NC	GREENSBORO	27420	P. O. BOX 21488		US	PA	231180120	VF CORPORATION	19900621	1-LAF	1	1231	10-Q	20090630	2009	Q2	20090811	2009-08-11 15:59:00.0	0	0	vfc-20090704.xml	1	
0001104659-09-048741	1053112	CABLEVISION SYSTEMS CORP /NY	4841	US	NY	BETHPAGE	11714	1111 STEWART AVENUE		5163806230	US	NY	BETHPAGE	11714	1111 STEWART AVENUE		US	DE	112776686			1-LAF	0	1231	10-Q/A	20090630	2009	Q2	20090811	2009-08-10 19:26:00.0	1	0	cvc-20090630.xml	2	784681
0001193125-09-171521	73309	NUCOR CORP	3312	US	NC	CHARLOTTE	28211	2100 REXFORD RD		7043667000	US	NC	CHARLOTTE	28211	2100 REXFORD ROAD		US	DE	131860817	NUCLEAR CORP OF AMERICA INC	19680911	1-LAF	1	1231	10-Q	20090630	2009	Q2	20090811	2009-08-11 11:17:00.0	0	0	nue-20090704.xml	1	
0001193125-09-171667	203527	VARIAN MEDICAL SYSTEMS INC	3845	US	CA	PALO ALTO	94304-1000	3100 HANSEN WAY		6504934000	US	CA	PALO ALTO	94304-1000	3050 HANSEN WAY	MAIL STOP E 224	US	DE	942359345	VARIAN ASSOCIATES INC /DE/	19920703	1-LAF	1	0930	10-Q	20090630	2009	Q3	20090811	2009-08-11 13:44:00.0	0	0	var-20090703.xml	1	
0000018230-09-000331	18230	CATERPILLAR INC	3531	US	IL	PEORIA	61629	100 NE ADAMS ST		3096751000	US	IL	PEORIA	61629	100 NE ADAMS ST		US	DE	370602744	CATERPILLAR TRACTOR CO	19860623	1-LAF	1	1231	10-Q/A	20090630	2009	Q2	20090812	2009-08-12 12:23:00.0	0	0	cat-20090630.xml	1	
0000950123-09-034092	203077	ST JUDE MEDICAL INC	3845	US	MN	ST PAUL	55117	ONE ST JUDE MEDICAL DRIVE		6517562000	US	MN	ST PAUL	55117	ONE ST JUDE MEDICAL DRIVE		US	MN	411276891			1-LAF	1	1231	10-Q	20090630	2009	Q2	20090812	2009-08-12 17:02:00.0	0	0	stj-20090704.xml	1	
0001104659-09-049293	88205	SPX CORP	3540	US	NC	CHARLOTTE	28277	13515 BALLANTYNE CORPORATE PLACE		704-752-4400	US	NC	CHARLOTTE	28277	13515 BALLANTYNE CORPORATE PLACE		US	DE	381016240	SEALED POWER CORP	19880515	1-LAF	1	1231	10-Q/A	20090630	2009	Q2	20090812	2009-08-12 16:31:00.0	0	0	spx-20090627.xml	1	
0001193125-09-172858	1038357	PIONEER NATURAL RESOURCES CO	1311	US	TX	IRVING	75039	200 WILLIAMS SQUARE WEST	5205 N OCONNOR BLVD	9724449001	US	TX	IRVING	75039	200 WILLIAMS SQUARE WEST	5205 N OCONNOR BLVD	US	DE	752702753			1-LAF	1	1231	10-Q/A	20090630	2009	Q2	20090812	2009-08-12 15:04:00.0	0	0	pxd-20090630.xml	1	
0001193125-09-173033	891456	PLAINS EXPLORATION & PRODUCTION CO	1311	US	TX	HOUSTON	77002	700 MILAM STREET	SUITE 3100	7135796000	US	TX	HOUSTON	77002	700 MILAM STREET	SUITE 3100	US	DE	330430755	PLAINS EXPLORATION & PRODUCTION CO L P	20020619	1-LAF	1	1231	10-Q/A	20090630	2009	Q2	20090812	2009-08-12 16:33:00.0	0	0	pxp-20090630.xml	1	
0000047111-09-000038	47111	HERSHEY CO	2060	US	PA	HERSHEY	17033-0810	100 CRYSTAL A DRIVE	P O BOX 810-EXTERNAL RPTG & COMPLIANCE	7175344200	US	PA	HERSHEY	17033-0810	P O BOX 810-EXTERNAL RPTG & COMPLIANCE	100 CRYSTAL A DRIVE	US	DE	230691590	HERSHEY FOODS CORP	19920703	1-LAF	1	1231	10-Q	20090630	2009	Q2	20090813	2009-08-13 07:12:00.0	0	0	hsy-20090705.xml	1	
0000092230-09-000076	92230	BB&T CORP	6021	US	NC	WINSTON-SALEM	27101	200 WEST SECOND STREET		3367332000	US	NC	WINSTON-SALEM	27101	200 WEST SECOND STREET		US	NC	560939887	SOUTHERN NATIONAL CORP /NC/	19920703	1-LAF	1	1231	10-Q/A	20090630	2009	Q2	20090813	2009-08-13 10:17:00.0	0	0	bbt-20090630.xml	1	
0001193125-09-174453	1080224	EDGAR ONLINE INC	7389	US	CT	NORWALK	06854	50 WASHINGTON ST		2038525666	US	CT	NORWALK	06854	50 WASHINGTON ST		US	DE	061447017			5-SML	0	1231	10-Q	20090630	2009	Q2	20090813	2009-08-13 16:38:00.0	0	0	edgr-20090630.xml	1	
0001193125-09-175285	1413329	PHILIP MORRIS INTERNATIONAL INC.	2111	US	NY	NEW YORK	10017	120 PARK AVENUE		(917) 663-2000	US	NY	NEW YORK	10017	120 PARK AVENUE		US	VA	133435103			1-LAF	1	1231	10-Q/A	20090630	2009	Q2	20090814	2009-08-14 09:15:00.0	0	0	pm-20090630.xml	1	
0001193125-09-176059	1059556	MOODYS CORP /DE/	7320	US	NY	NEW YORK	10007	7 WORLD TRADE CENTER	AT 250 GREENWICH STREET	2125530300	US	NY	NEW YORK	10007	7 WORLD TRADE CENTER	AT 250 GREENWICH STREET	US	DE	133998945	DUN & BRADSTREET CORP /DE/	19980728	1-LAF	1	1231	10-Q/A	20090630	2009	Q2	20090814	2009-08-14 16:48:00.0	0	0	mco-20090630.xml	1	
0001451505-09-000083	1451505	TRANSOCEAN LTD.	1381	CH		VERNIER	1214	BLANDONNET INTERNATIONAL BUSINESS CENTER	BLDG F, 7TH FLOOR, CHEMIN DE BLANDONNET	41-58-792-9243	CH		VERNIER	1214	BLANDONNET INTERNATIONAL BUSINESS CENTER	BLDG F, 7TH FLOOR, CHEMIN DE BLANDONNET	CH		980599916			1-LAF	1	1231	10-Q/A	20090630	2009	Q2	20090814	2009-08-14 17:25:00.0	0	0	rig-20090630.xml	1	
0000882835-09-000033	882835	ROPER INDUSTRIES INC	3823	US	FL	SARASOTA	34240	6901 PROFESSIONAL PKWY EAST	SUITE 200	9415562601	US	FL	SARASOTA	34240	6901 PROFESSIONAL PKWY EAST	SUITE 200	US	DE	510263969	ROPER INDUSTRIES INC /DE/	19930328	1-LAF	1	1231	10-Q/A	20090630	2009	Q2	20090817	2009-08-17 10:00:00.0	0	0	rop-20090630.xml	1	
0000950123-09-035693	1136869	ZIMMER HOLDINGS INC	3842	US	IN	WARSAW	46580	345 EAST MAIN STREET		5742676131	US	IN	WARSAW	46580	345 EAST MAIN STREET		US	DE	134151777			1-LAF	1	1231	10-Q/A	20090630	2009	Q2	20090817	2009-08-17 10:49:00.0	0	0	zmh-20090630.xml	1	
0001144204-09-043912	1137411	ROCKWELL COLLINS INC	3728	US	IA	CEDAR RAPIDS	52498	400 COLLINS ROAD NE		3192951000							US	DE	522314475			1-LAF	1	0930	10-Q/A	20090630	2009	Q3	20090817	2009-08-14 17:56:00.0	0	0	col-20090630.xml	1	
0000950123-09-036183	6281	ANALOG DEVICES INC	3674	US	MA	NORWOOD	02062	ONE TECHNOLOGY WAY		7813294700	US	MA	NORWOOD	02062	ONE TECHNOLOGY WAY		US	MA	042348234			1-LAF	1	1031	10-Q	20090731	2009	Q3	20090818	2009-08-18 16:26:00.0	0	0	adi-20090801.xml	1	
0000007332-09-000030	7332	SOUTHWESTERN ENERGY CO	1311	US	TX	HOUSTON	77032	2350 N. SAM HOUSTON PARKWAY EAST	SUITE 125	2816184700	US	TX	HOUSTON	77032	2350 N. SAM HOUSTON PARKWAY EAST	SUITE 125	US	DE	710205415	ARKANSAS WESTERN GAS CO	19790917	1-LAF	1	1231	10-Q/A	20090630	2009	Q2	20090820	2009-08-20 16:05:00.0	0	0	swn-20090630.xml	1	
0000950123-09-036965	46640	HEINZ H J CO	2030	US	PA	PITTSBURGH	15222-5448	1 PPG PLACE	SUITE 3100	4124565700	US	PA	PITTSBURGH	15230	P O BOX 57	P O BOX 57	US	PA	250542520			1-LAF	1	0430	10-Q	20090731	2010	Q1	20090820	2009-08-20 17:09:00.0	0	0	hnz-20090729.xml	1	
0001045810-09-000024	1045810	NVIDIA CORP	3674	US	CA	SANTA CLARA	95050	2701 SAN TOMAS EXPRESSWAY		408-486-2000	US	CA	SANTA CLARA	95050	2701 SAN TOMAS EXPRESSWAY		US	DE	943177549	NVIDIA CORP/DE	20020612	1-LAF	1	0131	10-Q	20090731	2009	Q2	20090820	2009-08-20 16:59:00.0	0	0	nvda-20090727.xml	1	
0000899689-09-000034	899689	VORNADO REALTY TRUST	6798	US	NY	NEW YORK	10019	888 SEVENTH AVE		212-894-7000	US	NY	NEW YORK	10019	888 SEVENTH AVE		US	MD	221657560			1-LAF	1	1231	10-Q/A	20090630	2009	Q2	20090821	2009-08-21 17:11:00.0	0	0	vno-20090630.xml	1	
0001193125-09-179839	1002638	OPEN TEXT CORP	7373	CA	ON	ONTARIO CANADA	N2L 0A1	275 FRANK TOMPA DRIVE	WATERLOO	519-888-7111	CA	ON	ONTARIO CANADA	N2L 0A1	275 FRANK TOMPA DRIVE	WATERLOO	CA	ON	980154400			1-LAF	1	0630	10-K	20090630	2009	FY	20090821	2009-08-21 16:34:00.0	0	0	otex-20090630.xml	1	
0000922224-09-000082	922224	PPL CORP	4911	US	PA	ALLENTOWN	181011179	TWO N NINTH ST		6107745151	US	PA	ALLENTOWN	18101-1179	TWO N NINTH ST		US	PA	232758192	PP&L RESOURCES INC	19941123	1-LAF	1	1231	10-Q/A	20090630	2009	Q2	20090825	2009-08-25 11:45:00.0	0	0	ppl-20090630.xml	1	
0000950123-09-037848	1013871	NRG ENERGY, INC.	4911	US	NJ	PRINCETON	08540	211 CARNEGIE CENTER	-	609-524-4500	US	NJ	PRINCETON	08540	211 CARNEGIE CENTER	-	US	DE	411724239	NRG ENERGY INC	19960509	1-LAF	1	1231	10-Q/A	20090630	2009	Q2	20090825	2009-08-25 15:46:00.0	0	0	nrg-20090630.xml	1	
0000950123-09-037888	62996	MASCO CORP /DE/	2430	US	MI	TAYLOR	48180	21001 VAN BORN RD		3132747400	US	MI	TAYLOR	48180	21001 VAN BORN ROAD		US	DE	381794485	MASCO SCREW PRODUCTS CO	19731025	1-LAF	1	1231	10-Q/A	20090630	2009	Q2	20090825	2009-08-25 16:28:00.0	0	0	mas-20090630.xml	1	
0001104659-09-051480	791519	STAPLES INC	5940	US	MA	FRAMINGHAM	01702	500 STAPLES DRIVE	P O BOX 9328	5082535000	US	MA	FRAMINGHAM	01702	500 STAPLES DR		US	DE	042896127			1-LAF	1	0131	10-Q	20090731	2009	Q2	20090825	2009-08-25 07:06:00.0	0	0	spls-20090801.xml	1	
0001193125-09-180950	1108524	SALESFORCE COM INC	7372	US	CA	SAN FRANCISCO	94105	THE LANDMARK	ONE MARKET STREET STE.300		US	CA	SAN FRANCISCO	94105	THE LANDMARK	ONE MARKET STREET STE. 300	US	DE	943320693			1-LAF	1	0131	10-Q	20090731	2009	Q2	20090825	2009-08-25 13:10:00.0	0	0	crm-20090731.xml	1	
0000950123-09-038201	68505	MOTOROLA INC	3663	US	IL	SCHAUMBURG	60196	1303 E ALGONQUIN RD		8475765000	US	IL	SCHAUMBURG	60196	1303 EAST ALGONQUIN ROAD		US	DE	361115800	MOTOROLA DELAWARE INC	19760414	1-LAF	1	1231	10-Q/A	20090630	2009	Q2	20090826	2009-08-26 16:00:00.0	0	0	mot-20090704.xml	1	
0000950123-09-038240	874766	HARTFORD FINANCIAL SERVICES GROUP INC/DE	6331	US	CT	HARTFORD	06155	ONE HARTFORD PLAZA		8605475000	US	CT	HARTFORD	06155	ONE HARTFORD PLAZA		US	DE	133317783	ITT HARTFORD GROUP INC /DE	19930328	1-LAF	1	1231	10-Q/A	20090630	2009	Q2	20090826	2009-08-26 16:48:00.0	0	0	hig-20090630.xml	1	
0000092122-09-000072	92122	SOUTHERN CO	4911	US	GA	ATLANTA	30308	30 IVAN ALLEN JR. BLVD., N.W.		4045065000	US	GA	ATLANTA	30308	30 IVAN ALLEN JR. BLVD., N.W.		US	DE	580690070			1-LAF	1	1231	10-Q/A	20090630	2009	Q2	20090827	2009-08-27 11:36:00.0	0	0	so-20090630.xml	1	
0000708819-09-000013	708819	MCDERMOTT INTERNATIONAL INC	3443	US	TX	HOUSTON	77079	777 N. ELDRIDGE PARKWAY		281-870-5000	US	TX	HOUSTON	77079	777 N. ELDRIDGE PARKWAY		PA		720593134			1-LAF	1	1231	10-Q/A	20090630	2009	Q2	20090827	2009-08-27 12:41:00.0	0	0	mdr-20090630.xml	1	
0000950123-09-038339	107263	WILLIAMS COMPANIES INC	4922	US	OK	TULSA	74172	ONE WILLIAMS CTR		9185732000	US	OK	TULSA	74172	ONE WILLIAM CENTER		US	DE	730569878	WILLIAMS BROTHERS COMPANIES	19710817	1-LAF	1	1231	10-Q/A	20090630	2009	Q2	20090827	2009-08-26 18:40:00.0	0	0	wmb-20090630.xml	1	
0000950123-09-038497	1018963	ALLEGHENY TECHNOLOGIES INC	3317	US	PA	PITTSBURGH	15222	1000 SIX PPG PLACE		4123942800	US	PA	PITTSBURGH	15222	100 SIX PPG PLACE		US	DE	251792394	ALLEGHENY TELEDYNE INC	19960716	1-LAF	1	1231	10-Q/A	20090630	2009	Q2	20090827	2009-08-27 11:02:00.0	0	0	ati-20090630.xml	1	
0001104659-09-051984	899051	ALLSTATE CORP	6331	US	IL	NORTHBROOK	60062	2775 SANDERS ROAD		8474025000	US	IL	NORTHBROOK	60062	2775 SANDERS ROAD		US	DE	363871531			1-LAF	1	1231	10-Q/A	20090630	2009	Q2	20090827	2009-08-27 11:53:00.0	0	0	all-20090630.xml	1	
0000920148-09-000065	920148	LABORATORY CORP OF AMERICA HOLDINGS	8071	US	NC	BURLINGTON	27215	358 S MAIN ST		3362291127	US	NC	BURLINGTON	27215	358 S MAIN ST		US	DE	133757370	NATIONAL HEALTH LABORATORIES HOLDINGS INC	19940314	1-LAF	1	1231	10-Q/A	20090630	2009	Q2	20090828	2009-08-28 12:37:00.0	0	0	lh-20090630.xml	1	
0000950103-09-002146	936402	SHIRE PLC	2834	GB		HAMPSHIRE ENGLAND RG	R924 8EP	HAMPSHIRE INTL BUSINESS PARK	CHINEHAM BASINGSTOKE	441256894000	GB		HAMPSHIRE ENGLAND RG	R924 8EP	HAMPSHIRE INTL BUSINESS PARK	CHINEHAM BASINGSTOKE			000000000	SHIRE LTD.	20080523	1-LAF	1	1231	10-Q/A	20090630	2009	Q2	20090828	2009-08-28 12:37:00.0	0	0	shpgf-20090630.xml	1	
0000950123-09-039236	936340	DTE ENERGY CO	4911	US	MI	DETROIT	48226	ONE ENERGY PLAZA		3132354000	US	MI	DETROIT	48226	ONE ENERGY PLAZA		US	MI	383217752	DTE HOLDINGS INC	19950127	1-LAF	1	1231	10-Q/A	20090630	2009	Q2	20090828	2009-08-28 12:45:00.0	0	0	dte-20090630.xml	1	
0000950123-09-039364	109198	TJX COMPANIES INC /DE/	5651	US	MA	FRAMINGHAM	01701	770 COCHITUATE RD		508-390-2662	US	MA	FRAMINGHAM	01701	770 COCHITUATE ROAD		US	DE	042207613	ZAYRE CORP	19890625	1-LAF	1	0131	10-Q	20090731	2009	Q2	20090828	2009-08-28 15:56:00.0	0	0	tjx-20090801.xml	1	
0001104659-09-052248	315189	DEERE & CO	3523	US	IL	MOLINE	61265-8098	ONE JOHN DEERE PLACE		(309) 765-5688	US	IL	MOLINE	61265-8098	ONE JOHN DEERE PLACE		US	DE	362382580			1-LAF	1	1031	10-Q	20090731	2009	Q3	20090828	2009-08-28 09:51:00.0	0	0	de-20090731.xml	1	
0001104659-09-052321	27419	TARGET CORP	5331	US	MN	MINNEAPOLIS	55403	1000 NICOLLET MALL		6123046073	US	MN	MINNEAPOLIS	55403	1000 NICOLLET MALL		US	MN	410215170	DAYTON HUDSON CORP	19920703	1-LAF	1	0131	10-Q	20090731	2009	Q2	20090828	2009-08-28 13:04:00.0	0	0	tgt-20090801.xml	1	
0001140361-09-019899	101778	MARATHON OIL CORP	2911	US	TX	HOUSTON	77253-3128	P O BOX 3128		7136296600	US	TX	HOUSTON	77056	5555 SAN FELIPE ROAD		US	DE	250996816	USX CORP	19920703	1-LAF	1	1231	10-Q/A	20090630	2009	Q2	20090828	2009-08-28 13:09:00.0	0	0	mro-20090630.xml	1	
0001193125-09-183342	769397	AUTODESK INC	7372	US	CA	SAN RAFAEL	94903	111 MCINNIS PKWY		4155075000	US	CA	SAN RAFAEL	94903	111 MCINNIS PKWY		US	DE	942819853			1-LAF	1	0131	10-Q	20090731	2009	Q2	20090828	2009-08-28 08:01:00.0	0	0	adsk-20090731.xml	1	
0001193125-09-183589	75362	PACCAR INC	3711	US	WA	BELLEVUE	98004	PACCAR BUILDING	777 106TH AVENUE NE	425 468 7383	US	WA	BELLEVUE	98004	PACCAR BUILDING	777 106TH AVENUE NE	US	DE	910351110	PACIFIC CAR & FOUNDRY CO	19720707	1-LAF	1	1231	10-Q/A	20090630	2009	Q2	20090828	2009-08-28 11:47:00.0	0	0	pcar-20090630.xml	1	
0001193125-09-183869	1051470	CROWN CASTLE INTERNATIONAL CORP	4899	US	TX	HOUSTON	77057	1220 AUGUSTA DRIVE	SUITE 500	7135703000	US	TX	HOUSTON	77057	1220 AUGUSTA DRIVE	SUITE 500	US	DE	760470458			1-LAF	1	1231	10-Q/A	20090630	2009	Q2	20090828	2009-08-28 16:06:00.0	0	0	cci-20090630.xml	1	
0001104659-09-052668	1053112	CABLEVISION SYSTEMS CORP /NY	4841	US	NY	BETHPAGE	11714	1111 STEWART AVENUE		5163806230	US	NY	BETHPAGE	11714	1111 STEWART AVENUE		US	DE	112776686			1-LAF	0	1231	10-Q/A	20090630	2009	Q2	20090831	2009-08-31 17:06:00.0	0	0	cvc-20090630.xml	2	784681
0000060667-09-000096	60667	LOWES COMPANIES INC	5211	US	NC	MOORESVILLE	28117	1000 LOWE'S BLVD.		7047581000	US	NC	MOORESVILLE	28115	P.O. BOX 1000		US	NC	560578072			1-LAF	1	0131	10-Q	20090731	2009	Q2	20090901	2009-09-01 17:09:00.0	0	0	low-20090731.xml	1	
0000950123-09-040145	6951	APPLIED MATERIALS INC /DE	3674	US	CA	SANTA CLARA	95054-3299	3050 BOWERS AVE		4087275555	US	CA	SANTA CLARA	95054-3299	3050 BOWERS AVE		US	DC	941655526	APPLIED MATERIALS TECHNOLOGY INC	19730319	1-LAF	1	1031	10-Q	20090731	2009	Q3	20090901	2009-09-01 16:07:00.0	0	0	amat-20090726.xml	1	
0000950123-09-040151	1453090	WEATHERFORD INTERNATIONAL LTD./SWITZERLAND	1381	US	TX	HOUSTON	77027	515 POST OAK BLVD.		(713) 693-4000	US	TX	HOUSTON	77027	515 POST OAK BLVD.		CH		000000000			1-LAF	1	1231	10-Q/A	20090630	2009	Q2	20090901	2009-09-01 16:18:00.0	0	0	wft-20090630.xml	1	
0001144204-09-046684	1121788	GARMIN LTD	3812	US	KS	GRAND CAYMAN		PO BOX 309 UGLAND HOUSE	SOUTH CHURCH ST GEORGETOWN	9133978200	US	KS	OLATHE	66062	C/O GARMIN INTERNATIONAL INC	1200 E 151ST STREET			980229227			1-LAF	1	1231	10-Q/A	20090630	2009	Q2	20090901	2009-09-01 14:57:00.0	0	0	grmn-20090627.xml	1	
0000751652-09-000050	751652	QUESTAR CORP	1311	US	UT	SALT LAKE CITY	84145	180 EAST 100 SOUTH ST	PO BOX 45433	8015345000	US	UT	SALT LAKE CITY	84145	180 EAST 100 SOUTH ST	P O BOX 45433	US	UT	870407509			1-LAF	1	1231	10-Q/A	20090630	2009	Q2	20090902	2009-09-01 19:39:00.0	0	0	str-20090630.xml	1	
0000950123-09-040402	55067	KELLOGG CO	2040	US	MI	BATTLE CREEK	49016-3599	ONE KELLOGG SQ	P O BOX 3599	2699612000	US	MI	BATTLE CREEK	49016-3599	ONE KELLOGG SQUARE	P O BOX 3599	US	DE	380710690			1-LAF	1	1231	10-Q/A	20090630	2009	Q2	20090902	2009-09-02 14:31:00.0	0	0	k-20090704.xml	1	
0001094093-09-000184	1094093	PROGRESS ENERGY INC	4911	US	NC	RALEIGH	27601	410 S WILMINGTON ST		9195466463	US	NC	RALEIGH	27601	410 S WILMINGTON ST		US	NC	562155481	CP&L ENERGY INC	20000314	1-LAF	1	1231	10-Q/A	20090630	2009	Q2	20090902	2009-09-02 10:22:00.0	0	0	pgn-20090630.xml	1	
0001193125-09-186163	4962	AMERICAN EXPRESS CO	6199	US	NY	NEW YORK	10285	200 VESEY STREET	50TH FLOOR	2126402000	US	NY	NEW YORK	10285	200 VESEY STREET	50TH FLOOR	US	NY	134922250			1-LAF	1	1231	10-Q/A	20090630	2009	Q2	20090902	2009-09-02 16:00:00.0	0	0	axp-20090630.xml	1	
0000950123-09-040810	36270	M&T BANK CORP	6022	US	NY	BUFFALO	14203	C/O CORPORATE REPORTING	ONE M&T PLAZA 5TH FLOOR	7168425390	US	NY	BUFFALO	14203	C/O CORPORAE REPORTING	ONE M&T PLAZA 5TH FLR	US	NY	160968385	FIRST EMPIRE STATE CORP	19920703	1-LAF	1	1231	10-Q/A	20090630	2009	Q2	20090903	2009-09-03 15:41:00.0	0	0	mtb-20090630.xml	1	
0000950123-09-040859	354950	HOME DEPOT INC	5211	US	GA	ATLANTA	30339-4024	2455 PACES FERRY ROAD		770-433-82	US	GA	ATLANTA	30339-4024	2455 PACES FERRY ROAD		US	DE	953261426			1-LAF	1	0131	10-Q	20090731	2009	Q2	20090903	2009-09-03 16:25:00.0	0	0	hd-20090802.xml	1	
0001104659-09-053270	5272	AMERICAN INTERNATIONAL GROUP INC	6331	US	NY	NEW YORK	10270	70 PINE ST		2127707000	US	NY	NEW YORK	10270	70 PINE STREET		US	DE	132592361	AMERICAN INTERNATIONAL ENTERPRISES INC	19700507	1-LAF	1	1231	10-Q/A	20090630	2009	Q2	20090903	2009-09-03 16:01:00.0	0	0	aig-20090630.xml	1	
0001193125-09-186885	310764	STRYKER CORP	3841	US	MI	KALAMAZOO	49002	2825 AIRVIEW BLVD		2693852600	US	MI	KALAMAZOO	49002	2825 AIRVIEW BLVD		US	MI	381239739			1-LAF	1	1231	10-Q/A	20090630	2009	Q2	20090903	2009-09-03 15:42:00.0	0	0	syk-20090630.xml	1	
0000065984-09-000179	65984	ENTERGY CORP /DE/	4911	US	LA	NEW ORLEANS	70113	639 LOYOLA AVE		5045764000	US	LA	NEW ORLEANS	70161	PO BOX 61000		US	DE	721229752	ENTERGY CORP /FL/	19940329	1-LAF	1	1231	10-Q/A	20090630	2009	Q2	20090904	2009-09-04 15:11:00.0	0	0	etr-20090630.xml	1	
0000950123-09-041361	12659	H&R BLOCK INC	7200	US	MO	KANSAS CITY	64105	ONE H&R BLOCK WAY		8168543000	US	MO	KANSAS CITY	64105	ONE H&R BLOCK WAY		US	MO	440607856			1-LAF	1	0430	10-Q	20090731	2010	Q1	20090904	2009-09-04 17:21:00.0	0	0	hrb-20090731.xml	1	
0001047469-09-008149	732485	GENZYME CORP	2836	US	MA	CAMBRIDGE	02139	ONE KENDALL SQ		6172527500	US	MA	CAMBRIDGE	02139	ONE KENDALL SQUARE		US	MA	061047163			1-LAF	1	1231	10-Q/A	20090630	2009	Q2	20090904	2009-09-04 13:22:00.0	0	0	genz-20090630.xml	1	
0001104659-09-053343	1063761	SIMON PROPERTY GROUP INC /DE/	6798	US	IN	INDIANAPOLIS	46204-3438	225 WEST WASHINGTON STREET		317-636-1600	US	IN	INDIANAPOLIS	46204-3438	225 WEST WASHINGTON STREET		US	DE	046268599	CORPORATE PROPERTY INVESTORS INC	19980610	1-LAF	1	1231	10-Q/A	20090630	2009	Q2	20090904	2009-09-04 08:30:00.0	0	0	spg-20090630.xml	1	
0001193125-09-187481	1156375	CME GROUP INC.	6200	US	IL	CHICAGO	60606	20 S. WACKER DR.		3129303011	US	IL	CHICAGO	60606	20 S. WACKER DR.		US	DE	364459170	CHICAGO MERCANTILE EXCHANGE HOLDINGS INC	20010802	1-LAF	1	1231	10-Q/A	20090630	2009	Q2	20090904	2009-09-04 11:28:00.0	0	0	cme-20090630.xml	1	
0001193125-09-187625	885639	KOHLS CORPORATION	5311	US	WI	MENOMONEE FALLS	53051	N56 W17000 RIDGEWOOD DR		4147835800	US	WI	MENOMONEE FALLS	53051	N54 W13600 WOODALE DR		US	WI	391630919			1-LAF	1	0131	10-Q	20090731	2009	Q2	20090904	2009-09-04 13:45:00.0	0	0	kss-20090801.xml	1	
0001193125-09-187772	1086222	AKAMAI TECHNOLOGIES INC	7389	US	MA	CAMBRIDGE	02142	8 CAMBRIDGE CENTER		6174443000	US	MA	CAMBRIDGE	02142	8 CAMBRIDGE CENTER		US	DE	043432319			1-LAF	1	1231	10-Q/A	20090630	2009	Q2	20090904	2009-09-04 16:01:00.0	0	0	akam-20090630.xml	1	
0001193125-09-187824	701985	LIMITED BRANDS INC	5621	US	OH	COLUMBUS	43216	THREE LIMITED PKWY	P O BOX 16000	6144157000	US	OH	COLUMBUS	43216	THREE LIMITED PARKWAY	P.O. BOX 16000	US	DE	311029810	LIMITED INC	19920703	1-LAF	1	0131	10-Q	20090731	2009	Q2	20090904	2009-09-04 16:31:00.0	0	0	ltd-20090801.xml	1	
0000950123-09-041558	1222333	SPDR GOLD TRUST	1040	US	NY	NEW YORK	10022	C/O WORLD GOLD TRUST SERVICES LLC	424 MADISON AVE 3RD FL	2123173800	US	NY	NEW YORK	10022	424 MADISON AVE 3RD FL				522369757	STREETTRACKS GOLD TRUST	20041008	1-LAF	1	0930	10-Q/A	20090630	2009	Q3	20090908	2009-09-08 13:09:00.0	0	0	gld-20090630.xml	1	
0001047469-09-008166	47217	HEWLETT PACKARD CO	3570	US	CA	PALO ALTO	94304	3000 HANOVER ST	MS 1050	6508571501	US	CA	PALO ALTO	94304	3000 HANOVER ST	MS 1050	US	DE	941081436			1-LAF	1	1031	10-Q/A	20090731	2009	Q3	20090908	2009-09-04 21:13:00.0	0	0	hpq-20090731.xml	1	
0001193125-09-188479	794367	MACY'S, INC.	5311	US	OH	CINCINNATI	45202	7 WEST SEVENTH STREET		5135797000	US	OH	CINCINNATI	45202	7 W SEVENTH ST		US	DE	133324058	FEDERATED DEPARTMENT STORES INC /DE/	19950307	1-LAF	1	0131	10-Q	20090731	2009	Q2	20090908	2009-09-08 15:24:00.0	0	0	m-20090801.xml	1	
0000801898-09-000131	801898	JOY GLOBAL INC	3532	US	WI	MILWAUKEE	53201-0554	100 EAST WISCONSIN AVE SUITE 2780		4144866400	US	WI	MILWAUKEE	53201-0554	100 EAST WISCONSIN AVE SUITE 2780		US	DE	391566457	HARNISCHFEGER INDUSTRIES INC	19920703	1-LAF	1	1031	10-Q	20090731	2009	Q3	20090909	2009-09-09 14:43:00.0	0	0	joyg-20090731.xml	1	
0000897101-09-001829	64670	MEDTRONIC INC	3845	US	MN	MINNEAPOLIS	55432	710 MEDTRONIC PKWY	MS LC300	7635144000	US	MN	MINNEAPOLIS	55432	710 MEDTRONIC PKWY		US	MN	410793183			1-LAF	1	0430	10-Q/A	20090731	2010	Q1	20090909	2009-09-09 16:55:00.0	0	0	mdt-20090731.xml	1	
0000950123-09-041984	72333	NORDSTROM INC	5651	US	WA	SEATTLE	98101-4407	1700 SEVENTH AVENUE	SUITE 1300	2066282111	US	WA	SEATTLE	98111	PO BOX 1770		US	WA	910515058	NORDSTROM BEST INC	19730611	1-LAF	1	0131	10-Q	20090731	2009	Q2	20090909	2009-09-09 13:23:00.0	0	0	jwn-20090801.xml	1	
0000950123-09-042090	1326380	GAMESTOP CORP.	5734	US	TX	GRAPEVINE	76051	625 WESTPORT PARKWAY		817-424-2000	US	TX	GRAPEVINE	76051	625 WESTPORT PARKWAY		US	DE	000000000	GSC HOLDINGS CORP.	20050506	1-LAF	1	0131	10-Q	20090731	2009	Q2	20090909	2009-09-09 16:29:00.0	0	0	gme-20090801.xml	1	
0001166126-09-000048	1166126	J C PENNEY CO INC	5311	US	TX	PLANO	75024-3698	6501 LEGACY DRIVE		9722431100							US	DE	260037077	J C PENNEY HOLDINGS INC	20020128	1-LAF	1	0131	10-Q	20090731	2009	Q2	20090909	2009-09-09 16:40:00.0	0	0	jcp-20090801.xml	1	
0001193125-09-189177	104169	WAL MART STORES INC	5331	US	AR	BENTONVILLE	72716	702 SOUTHWEST 8TH ST		5012734000	US	AR	BENTONVILLE	72716	702 SOUTHWEST 8TH STREET		US	DE	710415188			1-LAF	1	0131	10-Q	20090731	2009	Q2	20090909	2009-09-09 12:11:00.0	0	0	wmt-20090731.xml	1	
0001193125-09-189281	39911	GAP INC	5651	US	CA	SAN FRANCISCO	94105	TWO FOLSOM STREET		4159524400	US	CA	SAN FRANCISCO	94105	TWO FOLSOM STREET		US	DE	941697231	GAP STORES INC	19850617	1-LAF	1	0131	10-Q	20090731	2009	Q2	20090909	2009-09-09 14:41:00.0	0	0	gps-20090801.xml	1	
0001193125-09-190034	1058057	MARVELL TECHNOLOGY GROUP LTD	3674	BM		HAMILTON HM 12		CANON'S COURT	22 VICTORIA STREET	4412966395							BM		770481679			1-LAF	1	0131	10-Q	20090731	2009	Q2	20090910	2009-09-10 17:12:00.0	0	0	mrvl-20090801.xml	1	
0000950123-09-042709	826083	DELL INC	3571	US	TX	ROUND ROCK	78682-2244	ONE DELL WAY	STED	5127284737	US	TX	ROUND ROCK	78682	ONE DELL WAY		US	DE	742487834	DELL COMPUTER CORP	19920703	1-LAF	1	0131	10-Q/A	20090731	2009	Q2	20090911	2009-09-11 15:43:00.0	0	0	dell-20090731.xml	1	
0001354488-09-001699	353944	INTERNATIONAL GAME TECHNOLOGY	3990	US	NV	RENO	89510	9295 PROTOTYPE DRIVE	P O BOX 10580	7754487777	US	NV	RENO	89511	9295 PROTOTYPE DRIVE		US	NV	880173041			1-LAF	1	0930	10-Q/A	20090630	2009	Q3	20090914	2009-09-11 20:27:00.0	0	0	igt-20090630.xml	1	
0001193125-09-191566	874761	AES CORP	4991	US	VA	ARLINGTON	22203	4300 WILSON BOULEVARD		7035221315	US	VA	ARLINGTON	22203	4300 WILSON BOULEVARD		US	DE	541163725	AES CORPORATION	19930328	1-LAF	1	1231	8-K	20081231	2008	FY	20090915	2009-09-14 20:55:00.0	1	0	aes-20090914.xml	1	
0000950123-09-044076	1048911	FEDEX CORP	4513	US	TN	MEMPHIS	38120-	942 SOUTH SHADY GROVE ROAD		9018187500	US	TN	MEMPHIS	38120-	942 SOUTH SHADY GROVE ROAD		US	DE	621721435	FDX CORP	19971103	1-LAF	1	0531	10-Q	20090831	2010	Q1	20090918	2009-09-18 12:11:00.0	0	0	fdx-20090831.xml	1	
0001193125-09-195193	1341439	ORACLE CORP	7372	US	CA	REDWOOD CITY	94065	500 ORACLE PARKWAY	MAIL STOP 5 OP 7	6505067000	US	CA	REDWOOD CITY	94065	500 ORACLE PARKWAY	MAIL STOP 5 OP 7			542185193	OZARK HOLDING INC.	20051013	1-LAF	1	0531	10-Q	20090831	2010	Q1	20090921	2009-09-21 17:00:00.0	0	0	orcl-20090831.xml	1	
0000950123-09-045262	723531	PAYCHEX INC	8700	US	NY	ROCHESTER	14625-0397	911 PANORAMA TRAIL S		7163856666	US	NY	ROCHESTER	14625-0397	911 PANORAMA TRAIL SOUTH		US	DE	161124166			1-LAF	1	0531	10-Q	20090831	2010	Q1	20090923	2009-09-23 17:12:00.0	0	0	payx-20090831.xml	1	
0001104659-09-055895	56873	KROGER CO	5411	US	OH	CINCINNATI	45201	1014 VINE ST		5137624000							US	OH	310345740			1-LAF	1	0131	10-Q	20090731	2009	Q2	20090923	2009-09-23 12:00:00.0	0	0	kr-20090815.xml	1	
0000950123-09-045366	40704	GENERAL MILLS INC	2040	US	MN	MINNEAPOLIS	55426	NUMBER ONE GENERAL MILLS BLVD		(763) 764-7600	US	MN	MINNEAPOLIS	55440	P O BOX 1113		US	DE	410274440			1-LAF	1	0531	10-Q	20090831	2010	Q1	20090924	2009-09-23 21:29:00.0	0	0	gis-20090830.xml	1	
